"AddressID";"Street_Address";"City";"State";"Zip";"Country"
"00123987-1cd6-4ab3-aecb-fa0b1c49375a";"9 Aberg Center";"New Orleans";"LA";"70149";"United States"
"00453d90-415f-4471-a855-407ba9787a9f";"61510 Center Plaza";"Champaign";"IL";"61825";"United States"
"00464b45-3643-4085-afe5-8f69837cb200";"90846 Loeprich Way";"Charleston";"WV";"25362";"United States"
"005a3810-f371-42af-8d24-4275d928cbfd";"48524 Rigney Street";"Los Angeles";"CA";"90065";"USA"
"0155dda7-a455-4a9b-8d49-abc016650981";"4 Nevada Point";"Beaumont";"TX";"77705";"United States"
"01ccbee1-b2c5-46bb-a9b4-4aaa63aa8aec";"312 Westport Place";"Torrance";"CA";"90505";"United States"
"0203e2bc-9b52-4e9a-baec-36a06bf26a13";"30 Eastwood Hill";"Anaheim";"CA";"92825";"United States"
"02521fd1-226f-4c9b-a04c-d4dc215c9d62";"354 Loeprich Park";"Wilmington";"NC";"28410";"United States"
"02a846fa-1eef-414c-bc07-7f7905178be1";"88 Lerdahl Parkway";"Minneapolis";"MN";"55441";"United States"
"02d277c6-8cda-4238-b7ea-1f2bc64168e2";"51 Goodland Point";"Glendale";"CA";"91205";"United States"
"02df9002-dc1f-45f6-af26-3f92f06cc961";"25 Vermont Pass";"Decatur";"GA";"30089";"United States"
"03160045-adaa-49ef-8302-331aaa3ff026";"72 Kinsman Point";"Baltimore";"MD";"21290";"United States"
"0330e75c-f1e0-4b80-8fd3-d4aa760fc1df";"83767 Stuart Parkway";"Reston";"VA";"22096";"United States"
"0339dc55-d85c-4540-816f-b54c11c749fe";"4993 Hanson Circle";"Miami";"FL";"33158";"USA"
"0365dccb-b859-4652-ac44-f79ee843b484";"7 Ramsey Road";"Indianapolis";"IN";"46295";"United States"
"03a92c46-5feb-4899-a88a-5c82fae6f492";"13 Linden Way";"San Jose";"CA";"95128";"United States"
"03ad9709-f756-46bf-a6db-edf23b37e4e4";"3 Fulton Way";"Jacksonville";"FL";"32244";"United States"
"03adb3fb-a4c3-416c-affc-982a3f080fc4";"84205 Namekagon Street";"Knoxville";"TN";"37931";"United States"
"03b2878f-cc1a-4e4a-a692-c3f11fe7b0b9";"593 6th Park";"San Rafael";"CA";"94913";"United States"
"03b4fd9c-7e3a-4e8a-863d-3bbe15a4d9e2";"3432 Nova Plaza";"Vancouver";"WA";"98687";"United States"
"04528780-3881-424c-9ab7-2fa2edc05f4f";"5494 Vermont Terrace";"Burbank";"CA";"91505";"United States"
"0460cd18-be41-4f11-9015-978c167944cf";"1326 Bluestem Way";"Oakland";"CA";"94611";"United States"
"04633a57-3166-4a7c-8d5f-b43845d284c9";"15664 Brentwood Parkway";"Springfield";"IL";"62756";"United States"
"055a33da-b970-456e-b92d-4cde10ebf222";"63033 Saint Paul Drive";"Ogden";"UT";"84409";"United States"
"05ee2c15-e90d-4020-a278-1e760f681a41";"1196 Chinook Avenue";"Tallahassee";"FL";"32309";"United States"
"06034413-3f4e-478f-9f5f-264a2429ed42";"86474 Cody Place";"Newport Beach";"CA";"92662";"United States"
"06068772-9c4e-4815-af39-4c7679d9f8fe";"2100 Golf View Center";"Saint Louis";"MO";"63136";"United States"
"06382b9a-6819-4069-ad45-62e0d66edd72";"0174 Anhalt Alley";"Louisville";"KY";"40280";"United States"
"06e3afa0-9506-4279-8e8c-ab0c99558e3c";"8284 Armistice Road";"Reston";"VA";"20195";"United States"
"06fc0d1a-adf4-4767-bcfe-46a93c86e6dc";"6350 Eggendart Crossing";"Saint Augustine";"FL";"32092";"United States"
"0705017e-9518-458b-b966-aac7bf434b17";"993 Bluestem Trail";"Indianapolis";"IN";"46278";"United States"
"071a96ff-4673-4c54-82e6-8540e28650d5";"9 Clemons Road";"Denver";"CO";"80243";"United States"
"074fba67-d7a5-40cc-abd2-defd77fc8483";"237 Rowland Pass";"Toledo";"OH";"43656";"United States"
"0780e95c-ebd0-4fbb-9130-329a2222e767";"9 Old Shore Street";"New Orleans";"LA";"70174";"United States"
"078fe197-d348-4ae5-8083-60ed4f0bbf6b";"77439 Petterle Road";"Amarillo";"TX";"79165";"United States"
"07cbc41c-5103-4feb-836b-eea8ae54baf2";"363 Dottie Crossing";"Toledo";"OH";"43610";"United States"
"07d61b1f-ec7d-4165-a384-f79b0838a5d1";"919 New Castle Place";"Buffalo";"NY";"14225";"United States"
"0855d493-dcbc-4355-98e0-0a6fb794afcd";"0 Reindahl Lane";"Lansing";"MI";"48912";"United States"
"085a76d7-ac6d-4328-8597-def501e10a4b";"7 Hansons Alley";"Washington";"DC";"20051";"United States"
"08d9510a-56c7-486c-a864-fb09d4b68396";"75377 Marquette Alley";"Sparks";"NV";"89436";"United States"
"09099611-c340-4825-9b23-75fb9027dab4";"31 Lake View Lane";"Hollywood";"FL";"33023";"United States"
"09116b48-b36d-4bdd-bd9a-204e51acc687";"58408 Birchwood Hill";"Denton";"TX";"76210";"United States"
"0948df4e-5ac9-45c2-97ef-7dd69a895c90";"05 Eggendart Lane";"Omaha";"NE";"68144";"United States"
"09680288-75f6-4201-84cd-9719dbff2cec";"61 Ludington Place";"Jeffersonville";"IN";"47134";"United States"
"098ae074-1d60-40bc-9813-d21859a3006f";"0400 Declaration Alley";"Omaha";"NE";"68110";"United States"
"09a035ec-03b1-4e0f-9a3a-c84ef94083b0";"8 International Road";"Portland";"OR";"97211";"United States"
"09bc4529-bdd3-4269-8a99-64e27f7728d5";"5360 Steensland Park";"San Antonio";"TX";"78278";"United States"
"09c2fb19-689e-4bc0-a847-b0ea31c568ff";"2 Merrick Alley";"Oakland";"CA";"94611";"United States"
"09cd4473-2060-4b78-b230-0f9acdb59c83";"856 Erie Plaza";"Jamaica";"NY";"11480";"United States"
"0a0ba1c1-d31d-4ee7-ab8a-7a8d1890d7bf";"928 Cascade Lane";"Rockford";"IL";"61105";"United States"
"0abb4b23-a7d8-428f-9de2-79c74d74b230";"8143 Alpine Plaza";"Baltimore";"MD";"21229";"United States"
"0ad28852-fc49-498c-8acd-eefd0f70f9af";"7269 Dryden Way";"Springfield";"IL";"62776";"United States"
"0af8ae1b-8872-462e-809a-14a8ad1f7cd4";"19 Union Plaza";"Pittsburgh";"PA";"15255";"United States"
"0b31ee2c-b9fa-4cf2-94a4-db8f704dc487";"15 Delaware Court";"Charlottesville";"VA";"22903";"United States"
"0b4f1c36-0bfd-40b0-8b81-bcd5c5e594b0";"0 Mccormick Hill";"El Paso";"TX";"88519";"United States"
"0becdc54-df0c-4ff5-b5cb-a1c8ad3c9125";"61 Amoth Court";"Nashville";"TN";"37205";"United States"
"0c0fd1d7-8a79-41d2-856d-3a9a7ba8f097";"0 Myrtle Pass";"Colorado Springs";"CO";"80920";"United States"
"0ce7274f-a58b-42ed-b585-bb75923e6aaa";"467 Everett Center";"Lubbock";"TX";"79405";"United States"
"0cf577aa-3694-45e3-92c0-d42731477c67";"26 Anhalt Hill";"Youngstown";"OH";"44505";"United States"
"0d96eb37-5164-496b-9604-74e1a9a3d0dc";"15771 Esch Drive";"Vienna";"VA";"22184";"United States"
"0dcbdfbd-2461-4dc0-a281-7097cca4c04e";"2911 Talisman Court";"Champaign";"IL";"61825";"United States"
"0dfc926c-7494-452e-868e-fd25f6410cb4";"7 Bultman Court";"Detroit";"MI";"48258";"United States"
"0e03f050-2423-44c3-ba18-fe7f5852e753";"4 Sage Circle";"Denver";"CO";"80262";"United States"
"0e12daa9-001d-4fde-8a48-d0f0318f96bf";"9232 Bonner Street";"Shawnee Mission";"KS";"66225";"United States"
"0e16832d-fe50-4059-8e14-6cb24676f0d4";"4 Mallory Road";"Los Angeles";"CA";"90071";"United States"
"0e21543c-bdaf-4cb7-b6bf-897cbfb62fe7";"2 Artisan Avenue";"Mesa";"AZ";"85205";"United States"
"0f1321e4-b309-4d6f-a505-d0e5464fa55f";"539 Meadow Ridge Avenue";"Naples";"FL";"34114";"United States"
"0f4d2a63-3a18-4ebd-a326-454e1bd2bd7c";"2 Sheridan Parkway";"Memphis";"TN";"38188";"United States"
"0fafcf39-2eba-49da-a77d-7fceeff21dba";"6 Talisman Junction";"Kansas City";"KS";"66112";"United States"
"0fc91056-ffad-4655-bb62-2ff2fdf05d17";"93972 6th Trail";"Lexington";"KY";"40596";"United States"
"0fd02baf-5f92-4a50-a8e7-704b755f93d3";"64240 Eagle Crest Crossing";"Tallahassee";"FL";"32314";"United States"
"1007e0a8-4cdc-4336-abbe-31c96e9b8b9f";"05011 Lindbergh Drive";"San Antonio";"TX";"78215";"United States"
"10be81ae-0411-4490-9b51-1f4413ffcf87";"95714 Kipling Parkway";"Lexington";"KY";"40515";"United States"
"10cea604-a80a-4200-b5cf-4d66666eada2";"468 Hauk Street";"Dearborn";"MI";"48126";"United States"
"1139e064-097a-40a8-b204-4a3642628924";"3025 Ilene Place";"Baltimore";"MD";"21239";"United States"
"1164d288-e845-4604-8201-39f50d4d1d64";"63757 Hazelcrest Avenue";"San Bernardino";"CA";"92424";"United States"
"11d884d2-2700-49f0-a1b3-a76cb2b4955e";"320 Corben Street";"New Orleans";"LA";"70116";"United States"
"11f20ece-6589-44b5-9500-647de9da616c";"16403 Meadow Ridge Crossing";"New York City";"NY";"10270";"United States"
"121aa131-9c65-4e96-a226-6b0d681b3124";"76937 Mcbride Hill";"San Diego";"CA";"92110";"United States"
"124b37ce-a3ab-46fb-86c8-e3d016e0251d";"3956 Michigan Parkway";"Washington";"DC";"20062";"United States"
"124e1d03-5bd7-45a0-ad9c-23fd3096cecf";"07 Bunting Circle";"Honolulu";"HI";"96810";"United States"
"12749b22-b60c-4c92-b692-8f2e2120d2ac";"052 Sundown Circle";"Baltimore";"MD";"21229";"United States"
"12ceeeff-d0d6-4e16-b8e0-023bfcdc54fc";"51 Jay Road";"Chicago";"IL";"60604";"United States"
"13074cc9-62c4-4725-9e46-3eddf97de4fa";"3 Waubesa Trail";"Herndon";"VA";"22070";"United States"
"1354338c-4da4-4650-85ef-6722c05ccf9f";"90980 Chive Point";"Chicago";"IL";"60619";"United States"
"13e2173f-6328-40d4-9055-1d77ab2e353c";"4260 Grover Court";"Saint Louis";"MO";"63126";"United States"
"145fea16-12c0-4fac-9f7f-9dc2cf9f6cfb";"8 Beilfuss Avenue";"Little Rock";"AR";"72215";"United States"
"151d305a-43d3-4843-937d-3f31e27c9cc6";"9850 Bunting Alley";"Pittsburgh";"PA";"15274";"United States"
"151f1abf-764e-408c-80e4-b223c0fa1ecb";"789 Luster Parkway";"Roanoke";"VA";"24020";"United States"
"152e785d-e793-45f5-ba81-c441fc188561";"51809 Roxbury Plaza";"Frankfort";"KY";"40618";"United States"
"152ecb55-11e8-4841-be56-f34012ec8bbc";"1667 Mallard Drive";"Manassas";"VA";"22111";"United States"
"156238a8-1f5a-4d24-9866-b8ca5d39b109";"77 Chive Point";"Beaufort";"SC";"29905";"United States"
"156800f2-3699-4a68-8253-402465120ec9";"00 Blue Bill Park Road";"Columbus";"OH";"43284";"United States"
"1580d048-22d8-4542-b437-6284b5ae4249";"4460 Sachtjen Place";"Evansville";"IN";"47737";"United States"
"15a1c0bd-6d47-4f47-a82f-3a177548ea52";"8020 Fairfield Alley";"Washington";"DC";"20409";"United States"
"16d59248-8f6b-4284-89ec-933816965511";"80726 Trailsway Avenue";"New Orleans";"LA";"70174";"United States"
"16fa0ff3-ec69-4b2f-94c8-a16888d59c85";"275 Swallow Parkway";"Fort Lauderdale";"FL";"33355";"United States"
"17066d65-b737-4811-a1c5-15742aa0f4ef";"3 Northport Terrace";"Bakersfield";"CA";"93311";"United States"
"17242aa4-8443-4f68-858d-a25b5b90f122";"7 Shelley Plaza";"Seattle";"WA";"98104";"United States"
"174101ad-bd57-41f4-abbf-296fcc5ae7f1";"961 West Parkway";"Chesapeake";"VA";"23324";"United States"
"175aaead-bc85-4355-bb5d-fb597e6fda57";"683 Upham Parkway";"Peoria";"IL";"61605";"United States"
"1765e342-b7fc-401d-9569-6058d73e9305";"3 Moose Lane";"Rockford";"IL";"61110";"United States"
"177a3d9e-c7f8-426d-8eaf-4ac24686e4e4";"3 Mesta Hill";"Philadelphia";"PA";"19104";"United States"
"178d70d5-f56d-45af-a6ca-4aeaa4385924";"0 Gina Hill";"Atlanta";"GA";"30316";"United States"
"17b5038c-87ee-4292-b307-31f9085ec71f";"436 Hallows Crossing";"Cincinnati";"OH";"45249";"United States"
"17c52022-a024-43d6-b43b-f4802fc22d24";"7 Killdeer Place";"Bethlehem";"PA";"18018";"United States"
"1802b535-bb40-4834-a876-6d853d00356d";"9 Nobel Pass";"Hartford";"CT";"6105";"United States"
"1838f17b-01ee-43a3-9732-5d6d7a210b17";"10 Thierer Terrace";"Boston";"MA";"2114";"United States"
"1841f2d0-3e8d-4b2b-a9d3-dfadcdd1ec57";"3678 Grasskamp Point";"Los Angeles";"CA";"90071";"United States"
"18423d77-f56a-42cf-a056-3e74eff65e5e";"54373 Monterey Center";"Sacramento";"CA";"94273";"United States"
"1844e2c7-2d8a-467b-a9d9-61c30f34bcb3";"7 Warner Hill";"Fort Worth";"TX";"76115";"United States"
"184c5a72-e660-4697-b507-c22454505105";"7 Eliot Trail";"Sacramento";"CA";"94207";"United States"
"18bd0c76-1492-43d7-9563-3cb326045923";"4 3rd Center";"Portland";"OR";"97216";"USA"
"18ccb6c4-e273-43c9-b5ca-632ce33474eb";"74 Blackbird Court";"Springfield";"IL";"62756";"United States"
"19013358-dc3c-4f15-9886-7350db83cb89";"9924 Melby Drive";"Youngstown";"OH";"44511";"United States"
"192a1d38-9f03-43f7-8018-a96b40bd92ae";"07065 Eggendart Pass";"Hartford";"CT";"6105";"United States"
"194a5623-adf3-458e-be4f-aa7b9e959d1b";"404 Scott Parkway";"Des Moines";"IA";"50981";"United States"
"1956a8c2-43a1-4792-be3c-52fd5ef956d6";"40007 Blackbird Avenue";"Atlanta";"GA";"30351";"United States"
"19662681-a956-4663-b8f6-500e797f0e9c";"926 Mesta Place";"Greeley";"CO";"80638";"United States"
"1973c8bd-f341-469a-a099-4437dd42a811";"61249 Redwing Crossing";"Cincinnati";"OH";"45223";"United States"
"19912c63-7d23-4332-b17f-9d12fb379657";"47 Nevada Lane";"Charlotte";"NC";"28299";"United States"
"19adf2e0-d647-4fa2-99e5-c7c46beba1b8";"095 Arkansas Circle";"Port Washington";"NY";"11054";"United States"
"19db1a29-7b42-4e2f-85e7-05c3b6f4408a";"470 Stephen Terrace";"Tampa";"FL";"33615";"United States"
"1a02c235-4418-496c-9cba-393b7285f5be";"65 Bobwhite Junction";"Fort Smith";"AR";"72905";"United States"
"1a475a0e-28c9-4673-9b00-c761c4a0fdaf";"13544 Pepper Wood Trail";"Chicago";"IL";"60674";"United States"
"1a81a762-6fd6-41ad-9479-a605f5a57df3";"955 Scofield Road";"Austin";"TX";"78726";"United States"
"1abd17e0-cced-4987-a6b8-6759e4d95bd8";"4732 Monterey Pass";"Kansas City";"MO";"64114";"United States"
"1ae974e1-2181-4ce4-a3dc-49b55f426841";"41133 Longview Drive";"Florence";"SC";"29505";"United States"
"1b08a83b-80e4-406a-86b0-e1fe09d336db";"482 Claremont Hill";"Springfield";"MA";"1105";"United States"
"1b21b40b-32b1-4d46-92b9-d3956de740f0";"0890 Badeau Plaza";"Austin";"TX";"78737";"United States"
"1b42725c-245c-4fc1-91c1-d476c21e1d43";"3 Golden Leaf Lane";"Arlington";"VA";"22217";"United States"
"1b63826a-e781-4ac5-8842-cd31e8590641";"85 Hintze Crossing";"Aurora";"CO";"80044";"United States"
"1bb8d326-e58a-4f29-bdd6-e291ecdea3a7";"3817 Londonderry Drive";"High Point";"NC";"27264";"United States"
"1bccfe9b-2e9b-4f54-b53c-b37513d72a83";"72 Towne Trail";"Saint Louis";"MO";"63121";"United States"
"1bf28251-b82f-4874-9511-2eeefb87fd1a";"564 Red Cloud Trail";"New York City";"NY";"10039";"United States"
"1bfb7a44-8c43-48e5-ba11-b0b1229c3a8a";"37 Schmedeman Crossing";"Cleveland";"OH";"44105";"United States"
"1c2b345f-ac63-4f14-b008-ba79502eacea";"65842 Lakeland Parkway";"Naples";"FL";"33961";"United States"
"1c640fb8-c5fb-4691-8880-4e8575e34ff8";"992 Dunning Place";"Bronx";"NY";"10464";"United States"
"1c7f44de-c3a0-4279-ac16-4fd21318fdb0";"79 Fordem Junction";"Seattle";"WA";"98115";"United States"
"1cc980e1-a37a-4665-b624-26e5ac859f82";"5 Sherman Terrace";"Atlanta";"GA";"30328";"United States"
"1ceaa60a-7bcd-4e5a-85e0-44605fbb4fd1";"3 Sundown Trail";"Austin";"TX";"78759";"United States"
"1ceb4546-f91e-4c31-8d0a-c00bc607e916";"0 Packers Street";"Albany";"GA";"31704";"United States"
"1ceb8ad6-31f9-4354-bbde-9a5bf2cbb9f4";"151 High Crossing Street";"Vancouver";"WA";"98682";"United States"
"1d0823a6-c8d2-4daf-a98f-0b9280025d5d";"660 New Castle Drive";"Inglewood";"CA";"90305";"United States"
"1d213777-12aa-4437-a360-5da37688364c";"36 Becker Point";"Pittsburgh";"PA";"15250";"United States"
"1d24ae0c-9a45-4485-b6ab-ae786b08e696";"0675 Jenna Court";"Sacramento";"CA";"95894";"United States"
"1d33b122-c86a-46c0-a1cf-d9afb0cb307d";"883 Bultman Avenue";"Boise";"ID";"83722";"United States"
"1d36e060-2223-4837-8303-7262dd4ec247";"4073 Cherokee Pass";"Charleston";"WV";"25331";"United States"
"1d5298c9-d96b-4636-8f96-14ed6436e898";"6830 Sundown Hill";"Seminole";"FL";"34642";"United States"
"1d5d7ddc-edea-4f5d-a48a-b9b3f20abb76";"5969 Mcguire Crossing";"Jackson";"MS";"39216";"United States"
"1d9ab2a0-69df-408c-94f4-e7df6344d2e3";"1461 La Follette Alley";"Seattle";"WA";"98115";"United States"
"1dc21c28-8cca-4455-b61d-175cbe1c5103";"82627 Hoepker Terrace";"Rochester";"NY";"14609";"United States"
"1dc4c6b7-eafd-4cc9-aa3b-d3d347b4fbbb";"41193 Northport Terrace";"Pasadena";"CA";"91199";"United States"
"1df77f2b-8791-4f93-9456-63b1b9a72db4";"605 Scoville Plaza";"Durham";"NC";"27705";"United States"
"1e48fade-048b-4e53-ad86-ec66924d8860";"093 Cambridge Street";"Sacramento";"CA";"95813";"United States"
"1e4f2421-93e0-4c1b-80bc-5849e6a04c88";"2783 Schmedeman Plaza";"Birmingham";"AL";"35290";"United States"
"1e5cf532-13ef-4ee4-8e91-5899f6cb3788";"24775 Esch Hill";"West Palm Beach";"FL";"33416";"United States"
"1e84b1de-e41e-4e99-b8e2-7974c95f097c";"4310 West Court";"Katy";"TX";"77493";"United States"
"1ea2ecd0-4674-4095-aaab-3d32eee22820";"2 Bowman Pass";"Dallas";"TX";"75367";"United States"
"1ec8176f-7bf7-40e4-9f08-13015cde79ff";"229 Mifflin Lane";"Corona";"CA";"92883";"United States"
"1ed1cfce-94e3-4a0a-9ad2-6958c99772c9";"50827 Loeprich Hill";"Boise";"ID";"83732";"United States"
"1eeed16b-0de1-4e85-90ff-eace6f2c1547";"9784 Nelson Circle";"Corona";"CA";"92878";"United States"
"1f2ca213-3ee7-4740-83cc-cd4acfd8bf78";"4 Scott Trail";"Chicago";"IL";"60652";"United States"
"1f4ec47d-83d1-43ca-abe7-dbb784f9a9fc";"6 Hudson Avenue";"Montgomery";"AL";"36109";"United States"
"1f80471b-e1d1-4ab1-a8d1-8fd39f62051e";"752 Crest Line Alley";"Albany";"NY";"12247";"United States"
"202a945c-c22d-4362-8e28-37c2107d15a7";"5833 Harper Junction";"Hamilton";"OH";"45020";"United States"
"204455d6-5558-449d-94d3-fa69db62ad8a";"26 Bowman Place";"Colorado Springs";"CO";"80905";"US"
"205a9c44-9d38-40d5-8da6-e23eff6cc4f1";"50811 Alpine Point";"Tucson";"AZ";"85743";"United States"
"2083402b-7f87-42ce-8798-c88842f4699c";"20975 Meadow Ridge Drive";"Anchorage";"AK";"99507";"United States"
"20b6aaf0-a13e-4103-a387-88ed63fb350a";"1 Gina Court";"Fort Worth";"TX";"76129";"United States"
"20debb33-986e-414b-a87f-8ed2a287b27d";"31824 Hansons Place";"Rochester";"NY";"14646";"United States"
"20efaab8-e343-4c9e-8a87-c8f7a13e1155";"569 Prairieview Drive";"Louisville";"KY";"40298";"United States"
"2102c69e-6f2f-4a66-b71a-85a33260fdd9";"234 Hovde Park";"Reston";"VA";"22096";"United States"
"21143abd-6dd0-4793-b8df-82f7b8a61595";"32 Lindbergh Circle";"Migrate";"KY";"41905";"United States"
"214490d6-bd78-457e-92b2-751852d1c677";"30 Knutson Park";"Columbus";"GA";"31998";"United States"
"21b408fa-b386-4244-a18b-95c4587cbee6";"0 Straubel Junction";"Houston";"TX";"77228";"United States"
"21c70439-5b8a-4833-b8d0-f23a663d3f18";"248 Golf Drive";"Dearborn";"MI";"48126";"United States"
"21d143f9-439d-4220-98b1-050c10377583";"9 Old Shore Center";"Omaha";"NE";"68144";"United States"
"222cb481-ee47-4376-9a8f-fd8abc5a14c4";"329 Scofield Pass";"Huntington";"WV";"25726";"United States"
"22445c51-1f3f-4d81-808d-4adde914ecf8";"7974 Bluestem Alley";"Los Angeles";"CA";"90071";"United States"
"2252b463-90b1-44c9-87b6-f8e015224fed";"76 Crescent Oaks Point";"Harrisburg";"PA";"17121";"United States"
"229a1776-a302-473c-85eb-f9ac600bf176";"37 Doe Crossing Drive";"Austin";"TX";"78764";"United States"
"2369db9c-fa51-41d2-9dff-b7520e6ae649";"18516 Pearson Crossing";"Hartford";"CT";"6105";"United States"
"236a222c-b830-48fb-83e5-59465e414495";"88 Hansons Street";"Detroit";"MI";"48206";"United States"
"2376dcdc-6768-499a-983f-754f5f95621e";"393 Prentice Park";"Memphis";"TN";"38126";"United States"
"2383267c-aea9-4dc0-92a1-c4ffbd889898";"8897 Rigney Alley";"Long Beach";"CA";"90840";"United States"
"23d9b582-6988-45c5-8d59-5d647623696e";"0 Coolidge Circle";"North Little Rock";"AR";"72199";"United States"
"24d054fd-7097-472b-9530-7e03770ccc6a";"665 Hayes Terrace";"Baltimore";"MD";"21275";"United States"
"24e2b7f9-7ea3-4465-bdb0-77c7573ceb30";"54 Bellgrove Park";"Reading";"PA";"19610";"United States"
"24ef4f3d-47cc-417f-8f10-5dd1b2d65260";"5249 Glacier Hill Way";"Montgomery";"AL";"36109";"United States"
"24ef7af1-c564-411a-a489-b540c40f721f";"4 5th Drive";"Pocatello";"ID";"83206";"United States"
"24f83528-2e28-407a-84aa-dcf65525f172";"28 Springs Parkway";"New Orleans";"LA";"70174";"United States"
"25221adb-b356-450b-a1de-cdbc9a75754b";"00 Kinsman Court";"Houston";"TX";"77090";"United States"
"254d16b4-64d2-440a-9ad3-6239d875f368";"93454 Kenwood Hill";"Winter Haven";"FL";"33884";"United States"
"255d96a0-d5cd-4a6d-b4d0-7a8ebcdda1d1";"440 Sutteridge Junction";"Fort Wayne";"IN";"46896";"United States"
"25752d6f-0cbb-44af-a04f-5a9d11d62fda";"03615 Elmside Point";"Denver";"CO";"80204";"United States"
"2597a58d-27b6-4a7e-82aa-a2bb6b2d393c";"40984 Morningstar Junction";"Virginia Beach";"VA";"23464";"United States"
"25ac966a-fe7c-429a-a8a0-a0398380ec6c";"00 Loftsgordon Park";"Tacoma";"WA";"98464";"United States"
"262102ee-c11a-4a27-886f-8ca4476ed576";"63 Jackson Place";"Albany";"NY";"12210";"United States"
"2621752d-12c7-4b97-9d90-ccc2380b1d18";"89 Sunpoint";"Amarillo";"TX";"79171";"USA"
"2644d445-5f50-474d-b215-56c8aad58bc9";"665 Waywood Pass";"Austin";"TX";"78769";"United States"
"2682034a-8c90-469a-894e-5d68ed27509c";"3 Ridge Oak Hill";"West Palm Beach";"FL";"33411";"United States"
"269bf5a9-b883-4251-9356-86419f8f0836";"8454 Stang Pass";"Cincinnati";"OH";"45223";"United States"
"26a12538-8be6-4d2d-931a-2e6c3b509270";"40 Morrow Place";"Oklahoma City";"OK";"73142";"United States"
"26b0bd3f-dd1d-4e3d-a325-d914cf7cee49";"7 Donald Road";"Jefferson City";"MO";"65110";"United States"
"26d11a12-21f4-4cdf-83ae-fccee5202af6";"391 Florence Pass";"Racine";"WI";"53405";"United States"
"26e37e2a-6791-4c22-9434-f6e8bd5b347d";"57066 Bayside Plaza";"Richmond";"VA";"23277";"United States"
"26ef3f06-8a5f-467a-a10e-a55a3e1d94d5";"771 North Lane";"San Antonio";"TX";"78220";"United States"
"276ca696-7178-4a6b-bd49-0a47c3901c88";"23385 Northridge Hill";"Honolulu";"HI";"96825";"United States"
"2772685a-1af8-4ffa-91c5-f2e21b09d8c0";"29228 Surrey Road";"Sacramento";"CA";"94207";"United States"
"2775e129-ea7f-4665-a4b5-f03729de6bbb";"3365 Almo Court";"Anaheim";"CA";"92825";"United States"
"278dcbb4-b3af-427c-874e-4437502ebd05";"957 Atwood Circle";"Miami";"FL";"33153";"United States"
"27c4ba10-0e09-41c7-bef5-55539273a01d";"70111 Bluestem Alley";"Colorado Springs";"CO";"80940";"United States"
"283b45f5-e38f-4889-80c5-45981589ef8a";"7929 Arapahoe Street";"Hyattsville";"MD";"20784";"United States"
"283bb827-b2c4-4462-899f-2e1232ef0804";"3 Atwood Alley";"Arlington";"TX";"76011";"United States"
"28c0fc80-8abb-48a2-a120-0acdb4f39563";"71351 Anzinger Trail";"Toledo";"OH";"43610";"United States"
"28fe3209-745f-4146-bd14-e1efe8477ab7";"35276 Holy Cross Place";"Chicago";"IL";"60604";"United States"
"2923870d-7c77-4dbb-8c89-9a59cd8e2f8c";"26606 Goodland Junction";"El Paso";"TX";"88569";"United States"
"2940012c-6015-4688-905e-17366c36777c";"7 Memorial Park";"Gulfport";"MS";"39505";"United States"
"29a369b0-5ecd-472b-b51c-3aab953a2781";"38516 Prairieview Pass";"West Palm Beach";"FL";"33416";"United States"
"29a3cf29-a666-4ba3-9e0f-612ce717adcb";"6 Iowa Avenue";"Alhambra";"CA";"91841";"United States"
"29a64c27-1f3d-403c-9df4-26e6e5b5f5cb";"996 Loeprich Lane";"Boulder";"CO";"80310";"United States"
"29afc7e4-0048-404e-af52-e84de674f5bb";"84 Beilfuss Plaza";"Los Angeles";"CA";"90094";"United States"
"29b2d76d-4111-4f58-a87d-26950ef454aa";"79 Toban Circle";"New York City";"NY";"10150";"United States"
"29d3731e-1399-476d-bbda-e4566987ccb8";"90084 Debs Road";"Santa Barbara";"CA";"93106";"United States"
"29f90189-fb87-44da-92ad-3b4aa46bd8b6";"43035 Jenna Plaza";"Anchorage";"AK";"99507";"United States"
"2aec35be-f21c-47a6-95bb-65d8635967e2";"8922 6th Pass";"Bradenton";"FL";"34282";"United States"
"2afdab8a-6ccf-4402-86d3-0b64e277dd9a";"7 Sundown Alley";"Birmingham";"AL";"35215";"United States"
"2b05d018-7010-49b8-add2-0374d14d6d83";"15 North Trail";"Saint Petersburg";"FL";"33710";"United States"
"2ba342e8-ed56-44d5-9895-024aacfc7366";"9389 Arapahoe Way";"Bakersfield";"CA";"93311";"United States"
"2bb3f4e5-48d3-451e-98db-916b12953a72";"1 Union Hill";"Atlanta";"GA";"31119";"United States"
"2bb83c3c-6b6d-468a-9105-a24111f59c8e";"844 Hoepker Street";"Lincoln";"NE";"68510";"United States"
"2bcf4986-a68c-4b4b-a9b6-0a7c9609652d";"12604 Londonderry Parkway";"Austin";"TX";"78726";"United States"
"2c40a260-c1c0-43c0-83d0-ed370d3ace4a";"28848 Clarendon Road";"Rochester";"MN";"55905";"United States"
"2c5be731-77f0-470c-b5c1-4c39cbab4f30";"74 Sachs Plaza";"Young America";"MN";"55564";"United States"
"2c78186d-9750-48f4-86db-c4fc927cac60";"6 Aberg Place";"Phoenix";"AZ";"85025";"United States"
"2cc2e8e8-f051-4646-8eb3-683b80415f5b";"86110 Sachtjen Way";"Saint Paul";"MN";"55108";"United States"
"2cd81bd4-9b2a-4ccc-bec6-0b4965628c8f";"6057 Harper Junction";"Fort Lauderdale";"FL";"33330";"United States"
"2ce14eef-aaf8-473e-ada2-ba9db8648dd6";"900 Riverside Way";"Jacksonville";"FL";"32236";"United States"
"2d43d391-e280-42f5-83fa-90895d7c3d4b";"2 Roth Way";"Fargo";"ND";"58122";"United States"
"2d472157-3e21-4c35-8450-bb1471c57389";"9989 Sauthoff Junction";"Marietta";"GA";"30061";"United States"
"2da38a0a-067d-4a21-afd5-a8d2958863ce";"339 Gulseth Place";"Lexington";"KY";"40510";"United States"
"2da54bea-00b0-4cf9-a467-947139445789";"40 Bay Way";"Bakersfield";"CA";"93305";"United States"
"2db9bbfd-788b-483a-b2c9-42f8052d5d23";"0 Summit Way";"Fairbanks";"AK";"99709";"United States"
"2e46a849-60ce-40f0-b4f2-d6d4273fc332";"99303 Wayridge Park";"Wilkes Barre";"PA";"18763";"United States"
"2e60afab-d31c-4448-b8ca-5844eb068ffa";"72 Graceland Lane";"Savannah";"GA";"31410";"United States"
"2f5ef1f2-be20-4e4c-a730-de7c598bb89d";"95 Charing Cross Alley";"Columbus";"OH";"43210";"United States"
"2f636544-89f5-4176-9911-3c7609b144ec";"451 Fisk Junction";"Cincinnati";"OH";"45228";"United States"
"2fb9bf78-ad8c-46e1-aa3d-1992ecbd778a";"888 Basil Lane";"Dallas";"TX";"75236";"United States"
"2ff9885c-dc2d-4e54-ad4f-e16504117a50";"0862 Del Mar Crossing";"El Paso";"TX";"79999";"United States"
"303052e9-30fa-43da-a47c-c1fce35f8265";"833 Acker Crossing";"San Antonio";"TX";"78230";"United States"
"30918a57-6701-4de4-904b-f5f238e2f30e";"253 Montana Place";"North Little Rock";"AR";"72199";"United States"
"3110db0e-861c-4245-acda-a4783ba4761f";"37720 Dottie Alley";"Long Beach";"CA";"90805";"United States"
"31258e8f-0bcf-459a-8851-fcfcf67e3d7e";"09 Reinke Crossing";"Atlanta";"GA";"31119";"United States"
"31478613-4fcf-4677-af6b-a85238a6e6e8";"9030 Welch Trail";"New York City";"NY";"10045";"United States"
"3161376c-5626-42b0-a84b-e1e0e7c1b2a2";"52 Forest Dale Terrace";"Charleston";"WV";"25362";"United States"
"31c0738e-2d26-4c78-bb09-6b93b593be6c";"24 Eagle Crest Circle";"Melbourne";"FL";"32941";"United States"
"31d8103b-82ea-445e-acf1-093c21f29345";"128 Paget Drive";"Washington";"DC";"20210";"United States"
"31df6a17-cf1b-4fbe-808b-1b53d3f63955";"8 East Park";"Seattle";"WA";"98104";"United States"
"31dfa154-9214-4df8-9ce4-6cc68268304a";"775 Ryan Parkway";"Norwalk";"CT";"6854";"United States"
"320b0c00-8b3d-4830-931b-71bea585345b";"3211 Fairfield Alley";"Lakeland";"FL";"33805";"United States"
"32ddf554-d44d-4c16-9abe-1e34b98f5fad";"129 Gale Circle";"Frankfort";"KY";"40618";"United States"
"3379098c-57b4-4c27-b0d9-b8ca41465e36";"72 Iowa Point";"Washington";"DC";"20226";"United States"
"33ae9a67-f168-43bb-832d-d7cff0d22780";"4196 Ryan Plaza";"Lansing";"MI";"48912";"United States"
"3443fff0-6714-4724-9727-73225f6b25f0";"06 Utah Way";"Brooklyn";"NY";"11210";"United States"
"3452a4c5-4603-4d4f-a630-3f2c862a154d";"1611 Almo Place";"Seattle";"WA";"98175";"United States"
"34bba926-773a-4c9d-9fd7-840fc674ce1b";"2 Fuller Street";"Trenton";"NJ";"8650";"United States"
"35353ddd-e86f-4655-98d4-25a1527518bb";"298 Dixon Alley";"Akron";"OH";"44321";"United States"
"356ba5a9-b03f-4d1c-b50d-1bfeeafd6154";"29152 Lunder Point";"Springfield";"MA";"1105";"United States"
"35e41128-4bdd-4973-a677-6cdf7c48aace";"7966 Warner Park";"Springfield";"MA";"1105";"United States"
"35f66041-4d89-4220-ae63-66b990bd5972";"3 Arizona Junction";"El Paso";"TX";"79928";"United States"
"35fb69de-c7b4-470f-a4f9-50dd16bcdb2e";"7533 Roxbury Junction";"Brooklyn";"NY";"11247";"United States"
"366883ae-ba93-427e-a9cf-4bf1d89f337d";"90 Washington Park";"Las Vegas";"NV";"89110";"United States"
"36eece3c-d653-4167-a2f7-2ddd65c5d1e1";"65302 Schmedeman Crossing";"Los Angeles";"CA";"90189";"United States"
"36f61dbd-f905-45f2-97b7-fa07e0ef1046";"2 Ruskin Hill";"New York City";"NY";"10105";"United States"
"37899d39-2fc2-437a-9913-b2d5450af3e7";"24 Spaight Place";"Fort Wayne";"IN";"46857";"United States"
"37e7dd2c-1535-4fcd-8822-d2a6b1c69b47";"90090 Monica Court";"Oklahoma City";"OK";"73129";"United States"
"3834208b-918f-4361-8dd8-4b96386320f0";"6 Old Shore Avenue";"Washington";"DC";"20078";"United States"
"38463dc7-8c25-463c-9224-0f308f9247c0";"55091 Talisman Court";"Arlington";"VA";"22212";"United States"
"38c6982c-bdca-46b2-9d4c-5ef4869ba2a0";"38592 Main Park";"Saint Petersburg";"FL";"33731";"United States"
"390bb4c2-faa3-48d8-a6a7-c3507f29a188";"2759 Hagan Parkway";"Lawrenceville";"GA";"30245";"United States"
"391db9a5-964f-4964-a25b-8ff419a16594";"87829 Golf View Crossing";"Austin";"TX";"78769";"United States"
"3946986f-ff63-4ea9-a15f-13d695fdf37b";"4613 Vidon Terrace";"Orlando";"FL";"32825";"United States"
"39b83912-5333-4010-aa8f-cd924e996257";"520 Armistice Parkway";"Dallas";"TX";"75323";"United States"
"3a4fe295-3c18-45af-a887-569ffbd08b23";"55 Rutledge Avenue";"Saint Louis";"MO";"63126";"United States"
"3aa75ca4-773d-4e3c-8d1b-4fd716f5acc4";"7217 Thackeray Avenue";"New York City";"NY";"10060";"United States"
"3b1c36f8-d1a2-4e38-8fcf-07f60a97f434";"08642 Anhalt Drive";"Honolulu";"HI";"96850";"United States"
"3b22a7b4-9784-4599-a6cd-79d50264a460";"792 Pine View Hill";"Tampa";"FL";"33633";"United States"
"3b421565-4077-4842-9e54-f038c0cb863a";"28 Lakewood Gardens Road";"San Francisco";"CA";"94164";"United States"
"3b48215a-5cca-49aa-8d03-b5b31d857023";"3 Pleasure Parkway";"Los Angeles";"CA";"90010";"United States"
"3b61e2c0-a7e6-45ba-b006-a6ceee3f8f4c";"71336 Heffernan Terrace";"Young America";"MN";"55573";"United States"
"3baec34f-feec-4ca9-9903-f718a562edca";"5904 Ruskin Parkway";"Reston";"VA";"20195";"United States"
"3bdff028-5caa-4b27-a73a-fd6203f70cc8";"19 Dapin Circle";"Alexandria";"VA";"22313";"United States"
"3c0698ce-11a0-48e0-861b-9ff186b55476";"65642 Marquette Avenue";"Harrisburg";"PA";"17110";"United States"
"3c6362d6-3fb0-422c-9e6a-e1f3792c24ee";"4838 Havey Court";"Newport News";"VA";"23612";"United States"
"3c818f7c-672c-4083-904c-6f3e81a278cf";"9919 Corben Hill";"Pittsburgh";"PA";"15279";"United States"
"3c916463-b5f7-4f00-8605-b05d46421abd";"00 Buhler Drive";"Corpus Christi";"TX";"78405";"United States"
"3cf5a71c-8f7c-4e86-9e89-cbdc81ac13e7";"60129 Prentice Trail";"New Haven";"CT";"6510";"United States"
"3d05b930-45cd-40c2-ab42-79a2d45b15b2";"11 5th Pass";"Austin";"TX";"78715";"United States"
"3d361d76-24bc-4f3a-bed4-2656427ba1be";"6 Novick Avenue";"Wilmington";"DE";"19892";"United States"
"3d3dc5df-c13d-408f-b7ed-d79229303bfb";"7708 Westerfield Parkway";"Hyattsville";"MD";"20784";"United States"
"3d464bfb-c907-47f1-9f80-843bf0988402";"8 Donald Crossing";"Rochester";"NY";"14609";"United States"
"3dcf714e-2614-4c3d-932d-cc818e01bc2d";"4 Becker Parkway";"Katy";"TX";"77493";"United States"
"3e32c468-8162-40f3-8dfa-1e7911db54a4";"4685 Grover Trail";"New York City";"NY";"10125";"United States"
"3e63bc00-4d39-421b-a368-a1439f4a862e";"698 Basil Pass";"Maple Plain";"MN";"55572";"United States"
"3e7a5551-00e2-452f-8299-df8f4d0158b1";"6800 Fisk Junction";"Las Vegas";"NV";"89110";"United States"
"3edd67df-94c8-43cf-8a34-23574c2c6da3";"614 Judy Point";"Rochester";"NY";"14683";"United States"
"3f129c11-1789-4b8a-a8c9-d1b55f836d3e";"6 Melody Parkway";"Apache Junction";"AZ";"85219";"United States"
"3f130b66-c8c3-4b74-bb36-1d522ebc1cbf";"92 Bunker Hill Lane";"New York City";"NY";"10039";"United States"
"3f19b876-75e8-4d05-9937-0d73f485402c";"78802 Brown Terrace";"North Little Rock";"AR";"72199";"United States"
"3f718ebf-3632-4370-a70b-11fe5eaa6a25";"00576 Fordem Point";"Dallas";"TX";"75265";"United States"
"3f8b33ed-df85-4f35-af21-219b0f3c0f4f";"1 Old Shore Way";"Asheville";"NC";"28805";"United States"
"3fc05b09-55c0-44f2-b42d-1bf6375b5883";"87 Harper Lane";"San Diego";"CA";"92132";"United States"
"3fcb4206-9cf3-4bc7-bf17-79c077210311";"36 Green Way";"Los Angeles";"CA";"90010";"United States"
"3fe3b789-1b33-46b0-b77b-046f28ece6cb";"1784 Mallard Alley";"Mesa";"AZ";"85215";"United States"
"3ff7362c-ba26-4e96-bff4-bf88f2a8f47c";"42224 Meadow Valley Park";"Aurora";"IL";"60505";"United States"
"40169eb6-7ca2-401b-8c30-9dcdf13f6005";"22616 Jana Hill";"Newport News";"VA";"23605";"United States"
"40233d79-d409-4fc8-9f6f-e4a1eee49b77";"5 Pearson Junction";"Chico";"CA";"95973";"United States"
"4048d918-d567-454b-a201-b4f2fdb2674a";"6047 Kipling Hill";"Fort Worth";"TX";"76115";"United States"
"41311a9a-25f2-42dd-a9fb-ff1b25130598";"8 Ridgeway Center";"Nashville";"TN";"37220";"United States"
"41451e13-2baa-40ea-b083-94dd3a21bbf9";"4 Rieder Way";"Pittsburgh";"PA";"15279";"United States"
"4155388e-a807-4056-a0de-0a8e607e1d39";"79195 Bayside Lane";"Reston";"VA";"22096";"United States"
"41b4f525-de52-4e11-8574-b34bfe109373";"2 Haas Center";"Portland";"OR";"97229";"United States"
"424377dc-c3a9-4e0e-a160-0a27fceb295c";"03342 New Castle Parkway";"Savannah";"GA";"31410";"United States"
"4277f9fb-c7e8-4888-914b-43c510c7a0a5";"745 School Drive";"Nashville";"TN";"37205";"United States"
"42a8d8b0-bce5-48dd-a5c5-497679f1ca57";"88540 Elgar Center";"Bakersfield";"CA";"93311";"United States"
"42c552d6-bf47-40a6-8f65-b1bf2fc06304";"24 Coolidge Terrace";"New York City";"NY";"10009";"United States"
"42e7ecab-8c9a-4630-8937-94f1884b9c49";"239 Loftsgordon Drive";"El Paso";"TX";"88541";"United States"
"42ec6977-bbde-4fe5-868d-df114f0af34f";"2 International Plaza";"Gainesville";"FL";"32627";"United States"
"43280049-728b-461a-b65b-ae38fd6c4563";"68 Ludington Way";"Tallahassee";"FL";"32304";"United States"
"4357c3cc-b6ca-4391-a020-9c307b347966";"56309 Thackeray Road";"Lees Summit";"MO";"64082";"United States"
"43a4f908-ced7-4a81-acc1-3267e184766e";"66 Center Pass";"Naperville";"IL";"60567";"United States"
"43c90d58-e42b-4bab-ad75-646a2059e67a";"07 Kennedy Court";"Peoria";"AZ";"85383";"United States"
"447301c9-f0dd-41c6-a4a7-3788da68eab5";"2 Lindbergh Way";"Toledo";"OH";"43615";"United States"
"44d407ef-590e-4eb3-ae5a-d5029f4c5623";"49 Packers Circle";"Pittsburgh";"PA";"15225";"United States"
"452c599f-df0d-4a71-abd9-aaacd3a7c8b5";"0 Butterfield Street";"Tallahassee";"FL";"32309";"United States"
"454035e9-7980-486c-92c4-ea4285a677e2";"3549 Harper Trail";"Jackson";"MS";"39204";"United States"
"45b237ae-ae80-4809-a6d6-90f3a962d721";"4060 Farwell Alley";"Glendale";"CA";"91210";"United States"
"46003311-e395-4383-908b-ba750d138454";"215 Sutherland Park";"Birmingham";"AL";"35215";"United States"
"461ca831-f4bb-4a5b-b70e-4abe5c3f31fb";"763 Monument Plaza";"Stamford";"CT";"6922";"United States"
"46247dba-66bf-4cbe-9ca9-e3763472e565";"7206 Chinook Circle";"San Diego";"CA";"92127";"United States"
"462c3ff9-36b3-4bbb-9531-2e9522038b8c";"38 Redwing Park";"Las Vegas";"NV";"89110";"United States"
"46389f73-29b2-4b27-b5cb-825f861f18bb";"6 Mallory Street";"Naples";"FL";"34108";"United States"
"469ad5db-73e8-4fb5-b09f-a61f9dec2c9c";"0 Dunning Trail";"Tulsa";"OK";"74184";"United States"
"46a98666-c065-484a-ab62-ee72abb6e515";"93 Brown Street";"Atlanta";"GA";"30323";"United States"
"471b0df1-8c99-48e7-954b-54b5fc9f208e";"23 Brown Drive";"Ogden";"UT";"84409";"United States"
"471f2ef7-92d4-4cf1-8ee2-b48aee2e1961";"40664 Saint Paul Alley";"Toledo";"OH";"43605";"United States"
"4750d0ce-ae7a-4d69-8f8d-19ed179b9c1d";"0056 Manley Court";"Syracuse";"NY";"13224";"United States"
"4776e742-62c2-48f2-abca-aeb3cf717390";"5 Butterfield Terrace";"Philadelphia";"PA";"19151";"United States"
"47b90bcb-fa7a-4926-8ca1-aad12a429462";"78799 Lerdahl Way";"Louisville";"KY";"40287";"United States"
"47fe0864-ff26-419f-81d6-2faf8f86d332";"40353 Ridgeway Park";"Houston";"TX";"77045";"United States"
"48356503-59b3-4824-a89c-5e06f74e7bee";"155 Linden Park";"Omaha";"NE";"68110";"United States"
"483fcd81-70c3-4f9c-a66d-e5038dd20cba";"3 Ramsey Place";"Philadelphia";"PA";"19115";"United States"
"48a94325-a0a4-4e17-8651-0baff0f476f3";"4400 Briar Crest Alley";"Cincinnati";"OH";"45223";"United States"
"48e39144-76cd-4134-aac9-d5da09832498";"62634 Dryden Drive";"Milwaukee";"WI";"53205";"United States"
"4901aadb-78d3-4050-8bfb-e1379ecf254b";"38505 Haas Trail";"Dallas";"TX";"75205";"United States"
"49135f95-0a71-48dc-baab-9a1f9aba70cb";"332 High Crossing Circle";"Beaverton";"OR";"97075";"United States"
"496e3aa4-8eef-4802-8eaa-1b0edeecbbd6";"8 Randy Point";"Saint Petersburg";"FL";"33731";"United States"
"499cbb7d-7a3e-4541-8657-4b33b96ecee9";"579 Loeprich Center";"Erie";"PA";"16522";"United States"
"49aa7574-adf2-4aab-a07d-e430d6c9411b";"9 Fulton Place";"Tempe";"AZ";"85284";"United States"
"49da31ac-b03c-4715-90ce-98287de3d400";"3996 Bartelt Avenue";"Houston";"TX";"77090";"United States"
"4a766db1-4383-4611-bac3-32dcb7c39483";"863 Prentice Way";"Baltimore";"MD";"21275";"United States"
"4a8949bd-c19b-40a1-b025-d8e75832f031";"96013 Welch Point";"West Hartford";"CT";"6127";"United States"
"4a8b2932-e7d7-436a-988e-35f42f186e86";"555 Hudson Street";"Atlanta";"GA";"30392";"United States"
"4aed48e3-d372-4fe9-8232-605350e99479";"7 Hallows Hill";"Memphis";"TN";"38197";"United States"
"4b0ab05c-8bc9-4593-9c3d-a552e2c32d60";"6 Hudson Point";"Billings";"MT";"59105";"United States"
"4b1856b6-0cb0-41af-b2d1-0a582dc83682";"1404 Elgar Drive";"Santa Fe";"NM";"87592";"United States"
"4b384f39-29db-468a-8de0-2537e83d8246";"4983 Michigan Court";"Tulsa";"OK";"74193";"United States"
"4b482929-4e31-4ab0-bd84-ce455c348892";"21 Algoma Road";"New Bedford";"MA";"2745";"United States"
"4c0710f6-0996-439e-851e-1f1cceeb6640";"7 Jay Road";"Marietta";"GA";"30061";"United States"
"4c27bb9a-311a-4225-88c1-b4d13acf8ba8";"9 Redwing Alley";"Wilkes Barre";"PA";"18763";"United States"
"4c5b4b7b-ceda-42da-8745-6de8625d30ca";"006 6th Way";"Lancaster";"CA";"93584";"United States"
"4d155597-ea6a-4c11-bb77-44759f1d2a1d";"03018 Rowland Way";"Houston";"TX";"77065";"United States"
"4d3be1e5-1f46-4fe4-902d-57ee3f8a3d44";"6 Menomonie Street";"New Hyde Park";"NY";"11044";"United States"
"4d493cd4-52f1-4b0d-ba44-bd75f9bd4955";"9 1st Terrace";"Miami";"FL";"33142";"United States"
"4dca356e-95d4-47e0-8c30-62a47eba7a43";"7 Burning Wood Parkway";"Wilkes Barre";"PA";"18706";"United States"
"4dd7eb4b-6ccf-4317-ba04-26ce6f49cb35";"2 Barnett Plaza";"Madison";"WI";"53716";"United States"
"4e23a613-9add-4b6e-9e49-f2f9f10a245e";"89 Chive Lane";"Muskegon";"MI";"49444";"United States"
"4e6675d1-c161-4401-9aad-a4895bb694c3";"4715 Scofield Circle";"Pensacola";"FL";"32505";"United States"
"4e73e279-fdb7-45cc-adfb-d631574b6ddb";"5910 Cardinal Alley";"Tyler";"TX";"75710";"United States"
"4e7c626a-eadf-4f8c-8b30-4210581a359b";"66385 Homewood Alley";"Erie";"PA";"16565";"United States"
"4e92ed68-bd4e-4ad8-8dd1-ab5a9afa7ae4";"8 Jackson Avenue";"Greensboro";"NC";"27499";"United States"
"4ec4b1b4-531f-42e8-a376-3fa797289eba";"0875 Prairieview Point";"Salt Lake City";"UT";"84115";"United States"
"4edb3180-9665-4999-99cd-3bfe9806ccd2";"5618 Division Hill";"Jefferson City";"MO";"65110";"United States"
"4f570222-7a5b-48d6-ba34-b37b32335a88";"5 Sloan Junction";"North Little Rock";"AR";"72118";"United States"
"4f90b0a0-d0be-44bf-95ac-9206583ee42d";"3861 Oak Valley Road";"Cincinnati";"OH";"45208";"United States"
"4fb78c1c-9b43-4e5e-b532-ef3b870082b5";"18977 Amoth Drive";"Olympia";"WA";"98506";"United States"
"4fbe442f-1b00-449a-a48e-64874c6df99d";"9 Ridgeway Point";"Washington";"DC";"20575";"United States"
"4fbf83be-fe8c-4327-b97a-69a355f63afa";"843 Charing Cross Center";"Racine";"WI";"53405";"United States"
"4fcecbef-ac4f-479c-8acf-98f08880b13d";"238 Twin Pines Drive";"High Point";"NC";"27264";"United States"
"4ff43a01-1df3-4ca7-b2ab-59ebc98336e1";"99736 Heath Pass";"Dayton";"OH";"45440";"United States"
"4ff6b647-22d7-40a5-a632-3295ab702b25";"0 Mifflin Terrace";"Washington";"DC";"20310";"United States"
"5002165a-01ce-478b-9729-1753c3766d64";"22 Colorado Plaza";"Knoxville";"TN";"37939";"United States"
"5013c218-83c5-45bb-93ab-81131c4c1902";"35376 Village Green Center";"Dallas";"TX";"75387";"United States"
"50505451-08a8-48b0-b1ed-7a07d434c916";"676 Arkansas Road";"Richmond";"CA";"94807";"United States"
"505658d9-9b05-4601-8113-57033661ce11";"84 Westerfield Terrace";"Memphis";"TN";"38161";"United States"
"5058f6f8-2e27-4d23-b91c-87e18c947b9e";"3 Armistice Street";"Reno";"NV";"89510";"United States"
"5082a434-083b-417c-95f7-1ebe3d4be2d4";"40938 Kingsford Lane";"Kansas City";"MO";"64125";"United States"
"50b6b1bf-b53c-4f7b-a89c-d1e3a4709ed0";"33082 Menomonie Court";"Wilmington";"DE";"19810";"United States"
"50be6c3e-f82e-461d-a921-c085d0492e9d";"69 Nelson Center";"Shreveport";"LA";"71115";"United States"
"50cac5e3-3285-411b-b70a-a047fb9acc8c";"0 Butterfield Way";"Newark";"DE";"19725";"United States"
"50e529c1-a4fc-48bd-a5b7-e944ea42f53b";"2 Alpine Terrace";"Albany";"NY";"12210";"United States"
"50e595da-2fb5-4f92-9b50-1653918e15ac";"5970 Victoria Point";"Grand Rapids";"MI";"49560";"United States"
"51002115-ee35-4661-bc42-c5f7fecc088a";"59998 Goodland Hill";"Cincinnati";"OH";"45264";"United States"
"510e5efb-a562-47d2-8e7d-ac1f7d749af4";"06 6th Hill";"Minneapolis";"MN";"55441";"United States"
"514a8b20-db31-45fa-8988-1dd2f2c60142";"50 Twin Pines Place";"Chesapeake";"VA";"23324";"United States"
"51564d7c-0cc2-4a4c-9677-f8822459d249";"791 Di Loreto Crossing";"Little Rock";"AR";"72204";"United States"
"516e39b9-65f2-4721-92d9-bdad755d5b4d";"1721 Brown Park";"Springfield";"IL";"62723";"United States"
"51e19c51-75d7-426c-a536-5c28e7ccbd60";"955 Atwood Plaza";"Atlanta";"GA";"30328";"United States"
"521cd831-9505-4ecc-b15f-cef6e43300f6";"4988 Warbler Road";"Santa Monica";"CA";"90410";"United States"
"523a4490-0db4-4b61-986f-7be429f74a27";"361 Dakota Trail";"Chicago";"IL";"60609";"United States"
"524c2dc7-a4c8-4018-8343-507e08e59567";"18 Pankratz Circle";"Tacoma";"WA";"98405";"United States"
"52ca477d-8be1-46a9-8162-5be5d4325b5b";"3 Dawn Alley";"Boston";"MA";"2163";"United States"
"530c9f20-dbe1-4ed3-b125-25e3af67f99f";"88349 Darwin Point";"Dallas";"TX";"75397";"United States"
"53130287-dd85-4ad2-a410-dd764b63f162";"12 Erie Drive";"Detroit";"MI";"48258";"United States"
"5324e211-e21a-47a9-8056-a87cfe536e69";"1 Northridge Crossing";"Washington";"DC";"20409";"United States"
"5358949e-97af-432c-87bb-870cf174dcbe";"7 Pawling Terrace";"Salt Lake City";"UT";"84170";"United States"
"53d391db-f43a-4055-862b-bfa97c7d0417";"57635 Park Meadow Way";"Tampa";"FL";"33615";"United States"
"53e3f3b0-ea22-4545-ac78-90ff2a5c64b6";"39727 Northport Alley";"Wichita";"KS";"67210";"United States"
"53eb8f69-9635-45ba-a05e-d1a6e18bfa40";"021 Glacier Hill Junction";"Bronx";"NY";"10464";"United States"
"5425f024-7de5-4ebd-a1cd-f7f95206f004";"32 Schmedeman Pass";"Billings";"MT";"59112";"United States"
"5454022c-bbaf-48f1-84f2-1d1ff1176a3b";"38 Judy Center";"Washington";"DC";"20575";"United States"
"54d7cf7b-53e8-44a3-b0e6-c124601a752f";"491 Roxbury Road";"Las Vegas";"NV";"89160";"United States"
"55075b90-cfd9-4afb-a08a-2f04a5a3829b";"33 Harper Point";"New York City";"NY";"10175";"United States"
"551d2aeb-5b26-49c1-8738-1f64355f9093";"28544 Sullivan Pass";"Salt Lake City";"UT";"84105";"United States"
"555e4bf7-a85b-4764-ba7e-74ee6e80cc10";"1 Merchant Parkway";"Wilmington";"NC";"28410";"United States"
"55dabaac-b830-4b6b-b1e5-efc64e1edc42";"89071 Moland Plaza";"Tulsa";"OK";"74108";"United States"
"5604a2be-a3f7-4826-bd5e-f4d63ecb9707";"407 Hintze Court";"Muskegon";"MI";"49444";"United States"
"563544e7-8e33-4fb0-ace7-d4bf75ed3279";"57 Garrison Drive";"Salinas";"CA";"93907";"United States"
"568157d5-1cfb-41e8-8673-8e425662c15e";"5058 Westerfield Terrace";"Stamford";"CT";"6912";"United States"
"56b829c2-4b8c-4e28-9db4-3bdde10b5bfe";"8 Hintze Center";"Grand Rapids";"MI";"49560";"United States"
"56c09335-ad9c-4d1c-8c04-0b477e6d7dc2";"07 Independence Center";"Corpus Christi";"TX";"78465";"United States"
"56d13638-4059-4ce9-973e-0ffda4c23cfe";"8405 Gulseth Point";"Reston";"VA";"20195";"United States"
"56d3c171-3e7d-4911-a1d6-f759194c9dae";"793 Toban Pass";"Miami";"FL";"33147";"United States"
"56d79190-c9bf-4c03-9ce0-d71e0994784a";"460 2nd Drive";"Canton";"OH";"44710";"United States"
"56f4c281-b5d0-4e72-91cc-e04a1a652413";"4564 Donald Pass";"South Bend";"IN";"46620";"United States"
"5715d2fd-6095-4870-8790-5b25eb3c3d3f";"13306 South Center";"Reston";"VA";"22096";"USA"
"57659b23-b1a2-4142-8e97-1b0961c0af8b";"0 Corry Junction";"Dallas";"TX";"75216";"United States"
"576dd433-c0e8-4721-b02c-6edb03f6b000";"08 Lillian Lane";"Washington";"DC";"20051";"United States"
"577f6dc9-9ef6-48b4-92c5-6e26a3b2dbbc";"5 Blackbird Way";"San Diego";"CA";"92127";"United States"
"578bc8ae-9989-47bd-88e9-77d7fdb9bcba";"367 Maywood Circle";"Oklahoma City";"OK";"73167";"United States"
"57c3c223-2390-4cbf-a7b0-74a7cd68a025";"309 Darwin Road";"New York City";"NY";"10150";"United States"
"57db2099-a8e5-44ef-ba91-34736f58862e";"1 Farmco Court";"Racine";"WI";"53405";"United States"
"5810c911-f463-4460-b7d7-f2c741ba028b";"20 Westerfield Point";"Alexandria";"VA";"22301";"United States"
"582edbe6-4915-4356-9fd3-e808abbbc124";"20 Warbler Drive";"Bryan";"TX";"77806";"United States"
"5831c7d6-ae9b-4333-8535-fbd405ea9647";"60591 Harbort Plaza";"Cincinnati";"OH";"45999";"United States"
"589a01a5-2a20-443c-9967-450f60650d8f";"7252 Lake View Road";"Cincinnati";"OH";"45249";"United States"
"58d7df43-8bec-4210-9915-fda9425eec6d";"0123 Heffernan Avenue";"San Angelo";"TX";"76905";"United States"
"58e0f82d-a899-4bd4-9fe6-a440771772be";"60541 Rutledge Point";"Durham";"NC";"27705";"United States"
"58f878c6-52be-474d-b897-d622b5a1f99c";"02465 Redwing Hill";"Flint";"MI";"48550";"United States"
"58fee557-ebfb-4048-b04f-cdfdfe17df24";"8091 Kinsman Avenue";"Alexandria";"VA";"22313";"United States"
"593cabe5-b405-4c72-9879-1479217b443b";"60 Di Loreto Plaza";"Reston";"VA";"20195";"United States"
"5960e8fa-7012-41a8-8a50-2cb3f95ea6d2";"9 Weeping Birch Alley";"Chicago";"IL";"60674";"United States"
"5971c19b-3edc-4ff6-9264-a91de83b7b04";"63683 Montana Court";"San Jose";"CA";"95108";"United States"
"59d5f08f-e95f-4c9e-91a7-fc75530dfe00";"390 Mallory Parkway";"Washington";"DC";"20337";"United States"
"5a57f5c3-24fe-4d01-a15f-747cc2f11fe6";"65238 Bashford Road";"Portland";"OR";"97216";"United States"
"5a857f00-6be3-4396-8667-a2fcafb2dbd6";"359 Debs Drive";"Las Vegas";"NV";"89140";"United States"
"5a88f227-0658-4838-9f7c-0261a0aeb92b";"93168 Loomis Alley";"Rochester";"NY";"14619";"United States"
"5a9d5451-2099-45e2-9c0c-733b8b498e8a";"4 Summer Ridge Center";"Chicago";"IL";"60657";"United States"
"5aa9f16f-4394-4274-885b-e685dca4e73e";"12 Hansons Court";"Saint Louis";"MO";"63136";"United States"
"5aeefbb3-570d-4f76-af1a-b4bfa7e5e9f0";"23 Miller Lane";"Dallas";"TX";"75210";"United States"
"5af3f8d6-1a17-454d-b31a-9f0cf4098fc7";"1652 Grayhawk Street";"Corpus Christi";"TX";"78410";"United States"
"5b04394d-fbd8-4353-af3a-811fd588f338";"10273 Saint Paul Avenue";"Atlanta";"GA";"31106";"United States"
"5b565667-2543-44d7-9f9b-6819d14497a2";"26 Vernon Hill";"Erie";"PA";"16565";"United States"
"5bcda762-c051-41cb-9ccd-48410db9bf5e";"96 Blaine Way";"Seattle";"WA";"98158";"United States"
"5bd46d62-0aea-45c9-a639-18f8bbaeece0";"91 Brickson Park Trail";"Erie";"PA";"16522";"United States"
"5c0547d6-bb04-48df-8e16-66b5a49cb34b";"7 Shoshone Parkway";"Nashville";"TN";"37240";"United States"
"5c9e7cdd-48a5-4ae1-bbd5-c1deb619099c";"4 Vidon Point";"Hollywood";"FL";"33023";"United States"
"5d17968c-0a94-40f4-abd6-e8f434d99621";"5 Sunnyside Plaza";"Houston";"TX";"77085";"United States"
"5d31ab84-ad9b-4e65-9689-9d023d461faf";"53583 Union Way";"Denver";"CO";"80209";"United States"
"5d5274e6-427b-4ed0-a110-5b24aef7e52f";"59445 Lakewood Gardens Place";"Greensboro";"NC";"27404";"United States"
"5d866237-b953-406c-b429-28a273dc8664";"569 Dapin Way";"Philadelphia";"PA";"19120";"United States"
"5d9b5ee9-1a6c-4f74-bd71-5686dc2f52e1";"6490 East Pass";"Chicago";"IL";"60624";"United States"
"5d9b7ea7-2a6a-440e-a7dd-fc959707a8b8";"97033 Crownhardt Pass";"Alexandria";"VA";"22313";"United States"
"5dd0b19a-5627-4f63-9e84-8226bb5556d9";"09081 Heffernan Crossing";"Charleston";"WV";"25331";"United States"
"5dd394be-3aff-408c-82a7-b4efd5b39387";"83 Carey Road";"Philadelphia";"PA";"19196";"United States"
"5dd43d86-4ce0-43a6-af1c-0d002766a137";"161 Linden Junction";"Atlanta";"GA";"31136";"United States"
"5de9034f-b8a9-4413-9066-f0c5f6de061e";"192 Utah Center";"Denton";"TX";"76205";"United States"
"5e12a425-e5b1-4fa6-a5d4-427f55166d63";"2 Jana Terrace";"Springfield";"MO";"65898";"United States"
"5e27e0a8-8b14-4d4a-8324-ea19799afac9";"31763 Eastwood Road";"Pittsburgh";"PA";"15286";"United States"
"5e38fd75-8883-4ebf-944a-286b3051234c";"9 Ridge Oak Point";"West Palm Beach";"FL";"33411";"United States"
"5e5ec6fd-4367-4923-81cb-80151dfc5ab3";"1 Main Road";"Seattle";"WA";"98175";"United States"
"5e61a2b7-49aa-4973-90fb-12828d97c589";"33592 Pepper Wood Lane";"Peoria";"IL";"61640";"United States"
"5e66d279-bf3c-47e5-9f9d-1b7bb772b0d9";"701 Rigney Court";"Kansas City";"KS";"66160";"United States"
"5eba3a06-6e86-4023-9783-14109d31a11c";"0232 Trailsway Terrace";"Tucson";"AZ";"85732";"United States"
"5eda5a72-df87-40be-9f11-a96784e4cf8e";"966 Laurel Street";"Scranton";"PA";"18514";"United States"
"5efe40c3-853f-40f8-b7fd-ca5a13d87944";"887 Mallory Circle";"San Antonio";"TX";"78265";"United States"
"5f2c1d76-c0d3-44a6-9474-66b3ab703c3b";"547 Corry Pass";"Dallas";"TX";"75260";"United States"
"5f35f1a5-ed47-49d0-8142-18fbebc6844a";"6648 Buhler Street";"Salt Lake City";"UT";"84170";"United States"
"5f51b1a3-99ad-4b38-9858-7644987dd64c";"69897 North Court";"Los Angeles";"CA";"90010";"United States"
"5fb1ff93-58de-48c6-b678-003c658044ec";"83 Parkside Trail";"Los Angeles";"CA";"90071";"United States"
"5feffd7a-7a50-434d-997d-e946840079d8";"17099 Dottie Point";"Aurora";"CO";"80044";"United States"
"60118df6-ef57-4d94-a09b-bbea689f7f54";"59824 American Ash Junction";"Burbank";"CA";"91505";"United States"
"603731c2-c2b5-41e3-a091-8ff57f7c16b6";"416 Crescent Oaks Circle";"Irvine";"CA";"92619";"United States"
"604822cd-5266-429d-a8b0-7b97fa46f992";"105 Maryland Trail";"El Paso";"TX";"79940";"United States"
"606bb043-2585-44b8-965f-af65bafc41ee";"91555 Sachtjen Drive";"Salt Lake City";"UT";"84110";"United States"
"609db11f-6582-4d14-bd29-3200a28fcc89";"905 Meadow Vale Way";"Charlotte";"NC";"28299";"United States"
"61618ed4-d796-4995-8bf9-d6680d901cf0";"3608 Dorton Point";"Manchester";"NH";"3105";"United States"
"616e6ff4-7722-4e30-b8ee-d901fd6ae84e";"78069 Kensington Crossing";"Phoenix";"AZ";"85030";"United States"
"61807b4d-a8f3-450b-989f-00f794df5f7a";"6 Miller Circle";"Jacksonville";"FL";"32277";"United States"
"6192b84f-3e59-4152-8748-83f447732571";"473 Rowland Point";"Phoenix";"AZ";"85062";"United States"
"61d6db83-56bb-4e54-80d4-261bf5d45b46";"81919 Elka Center";"Knoxville";"TN";"37914";"United States"
"61fbac2e-8e61-4f0f-a2da-77f9f57a9c0f";"00183 Pierstorff Center";"South Bend";"IN";"46620";"United States"
"6215de96-b57f-42cf-b763-ca613082f5fb";"2 Lindbergh Junction";"Humble";"TX";"77346";"United States"
"62772cb3-3016-466b-887f-b1f6fb0832ae";"6 Hoepker Way";"Pensacola";"FL";"32505";"United States"
"629a8f12-cede-43b2-a550-b90dadb7402a";"59 Helena Parkway";"North Little Rock";"AR";"72199";"United States"
"62bc29e0-476d-495c-9f84-acd37529fcbd";"0 Anzinger Street";"Little Rock";"AR";"72215";"United States"
"62f3198b-fd2e-474b-842a-b50271d1b3bf";"49 Petterle Avenue";"Glendale";"CA";"91210";"United States"
"63f65bb7-0608-4174-abaa-23ab619511dd";"1944 Cardinal Point";"Great Neck";"NY";"11024";"United States"
"642f2a11-ee31-42fd-9406-c50469ad0034";"02181 Mockingbird Trail";"Erie";"PA";"16565";"United States"
"64305c8f-9273-4f22-9395-83055b9eb3d1";"202 Boyd Circle";"Denver";"CO";"80204";"United States"
"647a67e2-02f1-4836-a9f4-f1367904da3a";"24 Dovetail Hill";"Fort Worth";"TX";"76121";"United States"
"64e9cbde-1658-41a9-8be8-147ade594d23";"4 Debs Avenue";"Washington";"DC";"56944";"United States"
"65013c8d-3b28-4c15-a595-d54e68d1eba5";"78 Warner Way";"Hamilton";"OH";"45020";"United States"
"65229913-bcbc-448a-ade8-803857d04ef7";"0604 Dawn Parkway";"Washington";"DC";"20337";"United States"
"652a74b9-1f88-4fd0-805a-3ce5e47cef84";"335 Washington Parkway";"Charleston";"SC";"29424";"United States"
"6555b11d-d510-4e71-9a9d-8a5d7ad39547";"36525 Morningstar Lane";"San Jose";"CA";"95128";"US"
"65a9fe26-e9ab-43d7-ac0d-5bc0e7651922";"1268 Nelson Junction";"Dallas";"TX";"75226";"United States"
"65adaa18-d204-403d-8c0d-a07001383eb2";"72316 Drewry Plaza";"Racine";"WI";"53405";"United States"
"65babe5a-1b64-4279-8b30-928c7905b28c";"1 Forest Dale Lane";"Independence";"MO";"64054";"United States"
"66571909-4f45-4881-b5e4-39636d68a725";"3834 Sachtjen Point";"Las Vegas";"NV";"89105";"United States"
"66601969-5e74-4b3a-abcb-0b5d19b72d8e";"49 Towne Road";"Amarillo";"TX";"79165";"United States"
"66935d56-dc99-447e-a71c-2c5a0599b06e";"64481 Hauk Parkway";"Monroe";"LA";"71213";"United States"
"66b3df4f-b82d-4fc8-bef6-61e16747e5a4";"25 Little Fleur Avenue";"Miami";"FL";"33164";"United States"
"66c8a9cd-4936-4520-bd4e-94c66448a56a";"4485 Carey Avenue";"San Francisco";"CA";"94132";"United States"
"66d27ef6-702a-4d18-9262-a6083cea8eba";"831 Vernon Way";"Beaufort";"SC";"29905";"United States"
"671da5f8-aa7f-414b-90fc-7aff76c484e2";"292 Boyd Plaza";"Des Moines";"IA";"50362";"United States"
"67434136-8950-44d2-a08d-d456baeaf541";"942 Jana Park";"Orlando";"FL";"32825";"United States"
"6746c5ab-dbed-46b5-a44d-4ebe845d1ff3";"4603 Manley Terrace";"Rochester";"NY";"14604";"United States"
"6791a9b8-67fd-47ba-b175-438faea05cb7";"446 Colorado Lane";"Phoenix";"AZ";"85067";"United States"
"67e81afe-da54-40b4-b5a2-1fd37145cf88";"9696 Pierstorff Place";"Harrisburg";"PA";"17110";"United States"
"68005f7a-33a0-4c2c-b110-8abdec20eaf3";"8 Trailsway Way";"San Francisco";"CA";"94137";"USA"
"680fe6d1-6cbc-4302-9623-1250bb1a1458";"04 Marquette Circle";"Richmond";"VA";"23242";"United States"
"681297a9-1d1a-4210-aaa6-c935e1089264";"5592 Memorial Junction";"Oceanside";"CA";"92056";"United States"
"683c9b20-6275-4866-a0c2-9b2dbcc60ed8";"0 Dwight Way";"Houston";"TX";"77035";"United States"
"68d26e44-3b0c-4d88-87f7-955c6d3a2942";"895 Pleasure Trail";"Houston";"TX";"77025";"United States"
"68dcb94c-c2b2-4bd3-ba28-454d7ad735c6";"199 Vera Place";"Salt Lake City";"UT";"84120";"United States"
"68e05531-77dc-47f8-9627-c84e11e33aef";"62871 Northview Point";"Kansas City";"KS";"66105";"United States"
"69232dc2-7d3d-4041-96df-9cd6e6405c5c";"39575 Glacier Hill Pass";"Omaha";"NE";"68164";"United States"
"6952094f-3d36-4d2a-8712-e188d055dc4a";"720 Paget Street";"Toledo";"OH";"43615";"United States"
"69646088-6106-47f5-a2cb-65df9197b7c1";"8 Sunnyside Plaza";"Amarillo";"TX";"79176";"United States"
"699761fd-589e-4ea7-a365-4a924fee5374";"38055 Hauk Parkway";"Topeka";"KS";"66622";"United States"
"69b2a829-bbf2-42fd-942c-8dcd7bcf780d";"94 2nd Park";"Greenville";"SC";"29615";"United States"
"69c137ba-7310-49ad-bbf5-8ce77e289f4c";"08 Grover Place";"San Antonio";"TX";"78296";"United States"
"69debb58-13f7-42fd-9fb2-59916a4fd5be";"492 Tennessee Park";"Seattle";"WA";"98115";"United States"
"69eb01b1-80a8-4152-abcd-2aa47e7f668d";"75032 Judy Crossing";"Tucson";"AZ";"85715";"United States"
"69f6086b-4745-4ba6-bfca-f63901fb874d";"7744 Bashford Place";"Shawnee Mission";"KS";"66205";"United States"
"6a1f7294-2f23-4b1a-8822-b8fb822e9628";"41175 Union Place";"Wichita";"KS";"67236";"United States"
"6a234b4a-e449-475c-ae3d-dd1527691ac3";"94668 Pond Crossing";"Silver Spring";"MD";"20910";"United States"
"6a5a6875-5c95-4a96-9d9b-c34b08e2eabf";"752 Manley Center";"Miami";"FL";"33196";"United States"
"6aa8ca5a-977b-4d32-a1a1-10f236fc0efb";"41 American Avenue";"Chicago";"IL";"60604";"United States"
"6ab6e5dd-9ee6-41d9-9a55-0e060c4aac51";"517 Forest Street";"Valdosta";"GA";"31605";"United States"
"6ab93b94-f20b-48cc-86a2-90b7b776e20a";"16 Melvin Way";"Los Angeles";"CA";"90076";"United States"
"6acd5307-a9b7-4fdd-be6f-6298a65a5724";"00 Mifflin Road";"Los Angeles";"CA";"90055";"United States"
"6af1ff57-f2b3-4f8a-a0bb-f244a33e03b2";"14514 Meadow Valley Center";"Valdosta";"GA";"31605";"United States"
"6af2abe5-ea04-4118-8624-c41f579b6482";"43566 Dayton Junction";"Buffalo";"NY";"14225";"United States"
"6b09c6d4-69ac-4338-a27b-c3a4ff2e2188";"779 Melby Hill";"London";"KY";"40745";"United States"
"6b523c4d-23b2-4623-bdbe-a2744a850350";"68031 Texas Crossing";"Anaheim";"CA";"92825";"United States"
"6b716b2a-eae4-4dc8-86e9-ca2d0bec16c4";"96109 Coolidge Avenue";"Atlanta";"GA";"30323";"United States"
"6b82da83-9de7-483f-b6eb-de3b803e337b";"66881 Saint Paul Trail";"Staten Island";"NY";"10310";"United States"
"6bac240f-f6b2-4bc8-95b5-d1a7b8acde78";"98635 Hallows Plaza";"Denton";"TX";"76210";"United States"
"6beeac5a-e8ed-47a1-96ab-77aae9f5c737";"3 Merry Avenue";"Hartford";"CT";"6152";"United States"
"6c1872c1-eeb0-4248-b1c2-c74a060a2713";"678 Truax Lane";"Jacksonville";"FL";"32204";"United States"
"6c2534cd-c1ef-48c8-be00-d50ca4eeb41c";"519 Thompson Hill";"Oklahoma City";"OK";"73124";"United States"
"6c428e9b-421c-4dc7-80fe-2cb8882178bd";"304 Morrow Lane";"Savannah";"GA";"31410";"United States"
"6c5031e8-d59c-49a5-8a3d-4d6c432bec5f";"1 Esch Trail";"Saint Petersburg";"FL";"33731";"United States"
"6c55ff93-9d59-4367-bd08-08238a532dc8";"5157 Myrtle Alley";"Birmingham";"AL";"35290";"United States"
"6c5fe4c5-3807-49c3-b412-ea4b016fd8bd";"74 Porter Trail";"Charleston";"SC";"29424";"United States"
"6c7599ce-6e69-443e-bf4d-545fd9c43120";"7 Longview Terrace";"Lees Summit";"MO";"64082";"United States"
"6c90affb-96ce-4190-8fd2-f99d0fff2428";"69 Artisan Circle";"Phoenix";"AZ";"85072";"United States"
"6c9ab407-038d-4a2f-82bd-b9b85ff20167";"91604 Green Ridge Pass";"Dallas";"TX";"75265";"United States"
"6c9b1eb2-75db-41aa-97b1-69e9dfeb92cd";"431 Ruskin Way";"Houston";"TX";"77020";"United States"
"6cc6b29f-c272-410b-aaca-1f911b846c0c";"52 Huxley Hill";"Milwaukee";"WI";"53234";"United States"
"6ceca9de-86ec-4dae-acb1-2dc28e96fc42";"711 Jay Hill";"Portland";"OR";"97211";"United States"
"6cf4cab8-e865-42e8-89be-9f1d4bae32ae";"3 Evergreen Park";"Sacramento";"CA";"95833";"United States"
"6d43391c-3257-43c9-b862-9d75abb36967";"5072 Mendota Pass";"Manassas";"VA";"22111";"United States"
"6d61a8ea-2b39-4a9d-82e6-544a7d068c7e";"90 Southridge Trail";"Oklahoma City";"OK";"73124";"United States"
"6d8c1a86-d7a1-48e7-b7c8-2ce92907af88";"67 Hazelcrest Drive";"Anaheim";"CA";"92825";"United States"
"6dbced30-cfd4-41c7-b900-86bd178e45db";"15946 Shelley Hill";"Tampa";"FL";"33686";"United States"
"6e767347-3d09-4f18-84f2-1e91ad18a6d5";"86966 Starling Hill";"Lexington";"KY";"40524";"United States"
"6e963c25-58ba-4156-9c53-57ca7699355e";"4847 Tennessee Place";"Charleston";"WV";"25362";"United States"
"6e995536-4fdb-4b8e-b808-4b706828cb11";"5481 Toban Alley";"Hagerstown";"MD";"21747";"United States"
"6ecbee0e-e566-49e7-8a38-ef187c2ec23f";"0090 Portage Center";"Reading";"PA";"19610";"United States"
"6ef52a9a-5a9e-4b2e-83c3-236e43cb06cd";"11 Golden Leaf Parkway";"Brooklyn";"NY";"11215";"United States"
"6efa17da-57da-466f-aafc-5abe67aad41d";"77940 Corben Center";"Hampton";"VA";"23663";"United States"
"6f260a28-e4cf-4a57-8310-2086d65b3503";"687 Macpherson Road";"Maple Plain";"MN";"55572";"United States"
"6f624398-27de-4a8f-9699-2c435a25c93e";"0356 Commercial Park";"Dayton";"OH";"45432";"United States"
"6fb7ff15-f59f-423a-9e72-077feb298999";"0198 Texas Circle";"Boston";"MA";"2114";"United States"
"705ac42b-4133-4f46-8719-97da86d2752d";"4 Monument Plaza";"Honolulu";"HI";"96805";"United States"
"70681891-25d3-464a-bbe1-87e4682c7f10";"5213 Cascade Hill";"Kansas City";"MO";"64199";"United States"
"70727af3-7c85-45e0-ad2f-c1e8ce365e34";"2 Emmet Drive";"Providence";"RI";"2912";"United States"
"70948f7e-70ec-4f30-9244-f6345020ad63";"62053 Macpherson Avenue";"Rockford";"IL";"61110";"United States"
"70a79327-12fb-440b-a882-0deb8b63bbca";"691 Division Street";"Atlanta";"GA";"30323";"United States"
"714aeed4-7bf7-4045-a737-db5665898149";"62 Logan Place";"El Paso";"TX";"79968";"United States"
"715a3ae7-0a74-435b-83c2-b0cc2accaa32";"662 Clemons Junction";"Lexington";"KY";"40596";"United States"
"716bf709-7a97-45ac-9507-a2c71052ab5f";"488 Heath Park";"New Orleans";"LA";"70183";"United States"
"718d5028-edce-43fe-9721-ed3bae599495";"31 Spohn Drive";"Washington";"DC";"20470";"United States"
"71ac5c83-7123-46ed-8c29-930f2a2b1df5";"0017 Gateway Parkway";"Jacksonville";"FL";"32244";"United States"
"72044b95-89a8-46e0-bff6-af1845e7b56c";"2 Lighthouse Bay Plaza";"Colorado Springs";"CO";"80915";"United States"
"72767ef9-576f-4c6a-9861-d52dfd371d21";"0973 Farragut Avenue";"Chicago";"IL";"60686";"United States"
"72779227-7141-4594-9321-24bdbfe0f165";"728 Parkside Parkway";"Oakland";"CA";"94611";"United States"
"72873b13-1334-470d-976a-182eef83a5ef";"20662 Swallow Pass";"Pittsburgh";"PA";"15240";"United States"
"7291ab63-4818-44cc-a953-d2d77af24b7e";"0 Tony Street";"Denver";"CO";"80291";"United States"
"72a6aa24-fb16-40af-8d61-6eeb595fb882";"29391 Anhalt Alley";"Brooklyn";"NY";"11215";"United States"
"72be646a-5f2c-42a3-9693-d87277279736";"8 Rockefeller Place";"Dallas";"TX";"75216";"United States"
"72dc18b4-9d47-4d6b-b4e4-a6a09f414171";"7 Troy Avenue";"Wilkes Barre";"PA";"18706";"United States"
"736b1eb9-045d-4682-bd98-8af103f10fe8";"39105 Butterfield Place";"Milwaukee";"WI";"53263";"United States"
"73c1d282-602d-4068-8041-b35d6f78b5eb";"57 Swallow Trail";"Providence";"RI";"2912";"United States"
"73f930b5-d3c9-49b6-a7c3-4b039e98bc86";"8950 Porter Terrace";"Columbus";"OH";"43231";"United States"
"74408396-d93a-4a1f-9f0c-d7d7356924e1";"2856 Hoard Point";"Milwaukee";"WI";"53225";"United States"
"74bf7c6f-56a4-447f-a1c0-ce7b5d4b92cd";"23313 Manitowish Street";"Orlando";"FL";"32819";"United States"
"74d82ce5-a08f-4f15-baa7-5531ebc83b19";"804 Portage Hill";"Houston";"TX";"77293";"United States"
"74f6966e-9560-460d-bf3f-7a2def77423a";"75162 Oxford Terrace";"San Diego";"CA";"92153";"United States"
"75067d73-54dd-4d02-8be7-110cbb0210a5";"0652 Stang Trail";"Manchester";"NH";"3105";"United States"
"750ee9de-9c05-4264-9ab0-ab0a7f585933";"00294 North Trail";"Louisville";"KY";"40266";"United States"
"751fa407-d2e3-413d-b9ca-1e239eba45d0";"0 Summit Street";"Arlington";"VA";"22217";"United States"
"75356727-844c-415f-96a1-27da583a47b1";"972 Garrison Lane";"Atlanta";"GA";"30306";"United States"
"753ad3d9-f1b9-40ca-a1c9-8b622b32ad99";"9 Brickson Park Place";"Birmingham";"AL";"35236";"United States"
"75874562-6f19-4d01-bbce-ae0e1408e286";"450 Rigney Pass";"Milwaukee";"WI";"53210";"United States"
"758e5067-0233-4f94-86ef-c562fe1e8635";"5180 Tomscot Hill";"Boulder";"CO";"80305";"United States"
"75bca909-d782-4c55-92f3-f64fa6b16a40";"33770 Continental Place";"Charlotte";"NC";"28299";"United States"
"75ff88f5-2541-4cf2-a626-f8198d62d153";"36915 School Plaza";"Jamaica";"NY";"11470";"United States"
"76683edc-366a-49c9-84fc-3b8a8af1ba17";"384 Brickson Park Center";"Bradenton";"FL";"34282";"United States"
"76d406bb-dbe0-4f7b-a236-ce7d7ec979b8";"81579 Florence Court";"Greensboro";"NC";"27409";"United States"
"76ea99c5-af59-4023-ac8d-953f742251dd";"99 Melby Parkway";"Newport Beach";"CA";"92662";"United States"
"770d097c-ae2a-4c66-9189-9face9452d2b";"009 Bowman Junction";"Saint Louis";"MO";"63116";"United States"
"77246930-e5ea-4cfa-8b35-d534b85d65df";"1 Tennyson Lane";"Tacoma";"WA";"98442";"United States"
"77c67ad6-fc99-4b10-a56d-1c32f5f75a20";"60 Caliangt Parkway";"Indianapolis";"IN";"46254";"United States"
"77d36b99-bd34-4100-a22f-37189ec2e106";"9861 Lien Lane";"Iowa City";"IA";"52245";"United States"
"77f46bd1-d063-40fc-978b-fc09b10655bc";"07 Tennessee Trail";"Montgomery";"AL";"36125";"United States"
"787506ea-d614-4912-a196-a6f2f5282ab9";"29 Lighthouse Bay Avenue";"Melbourne";"FL";"32941";"United States"
"78c20164-fa2b-4769-9817-a0b192b28d73";"400 Corry Lane";"New York City";"NY";"10039";"United States"
"792376b8-e80a-4879-a5fc-011529668a28";"090 David Junction";"New Orleans";"LA";"70174";"United States"
"79ff7625-a915-4cfe-8228-b1cecd21ef57";"6160 Jay Hill";"Los Angeles";"CA";"90010";"United States"
"7a157f4a-5f8a-42fb-a536-53cb1125fedf";"53 Village Green Road";"Dallas";"TX";"75260";"United States"
"7a25ccf5-264b-425d-aab5-7172c2e5cfe3";"9 Schiller Center";"Oakland";"CA";"94622";"United States"
"7a475bea-4345-436c-a198-ab459906791b";"485 Brentwood Hill";"Waterbury";"CT";"6705";"United States"
"7a492625-2038-45ce-9991-a4e58d922c1f";"36312 Grim Center";"Louisville";"KY";"40225";"United States"
"7a4f71eb-ba2c-4b59-aecc-eb716988f61c";"64231 Kipling Crossing";"Minneapolis";"MN";"55448";"United States"
"7a585e49-6091-4d63-9205-9d5743f3282c";"24 Bobwhite Street";"Pompano Beach";"FL";"33064";"United States"
"7a64c30d-ed13-49fe-a882-6fde11c25e9e";"39972 Iowa Place";"Salinas";"CA";"93907";"United States"
"7ad624e8-6bce-4720-8935-430fd2ba39f8";"6311 Northfield Hill";"Savannah";"GA";"31410";"United States"
"7ae1b411-a1f4-4575-91cc-cd6338b3dba0";"58 Oakridge Way";"New York City";"NY";"10004";"United States"
"7ae36d69-60e3-460b-a15a-ee2281cf4a4e";"06 Drewry Circle";"Peoria";"IL";"61656";"United States"
"7b0ed177-d959-4ff7-bcf3-6084e1ea1b62";"152 Scoville Plaza";"Los Angeles";"CA";"90065";"United States"
"7b2e3c43-6ab1-47a8-b64d-b927c9b0705f";"1834 Buena Vista Center";"Chicago";"IL";"60657";"United States"
"7b567cf7-1737-405e-991d-f04895899c5b";"01 Buhler Plaza";"Birmingham";"AL";"35205";"United States"
"7b90fab8-2bea-4986-aa51-5067aabc9236";"7 Swallow Avenue";"Des Moines";"IA";"50362";"United States"
"7bab130f-4085-4e72-beac-87d19c38272c";"795 Service Plaza";"Durham";"NC";"27710";"United States"
"7bc97d1d-5cd7-4e62-bc99-e370014a02c3";"78350 Dovetail Alley";"Cincinnati";"OH";"45218";"United States"
"7bfc274b-c654-491a-aac5-cd1b7159a8b8";"3 Lawn Drive";"Wilmington";"NC";"28410";"United States"
"7c35afdb-4c23-4fc9-96ad-431eb2fb7598";"86 Del Mar Point";"Dearborn";"MI";"48126";"United States"
"7c792677-7ce6-4cd4-bf9d-077432ef9793";"07318 5th Drive";"Lakeland";"FL";"33805";"United States"
"7cd5a548-7f0e-4bfe-aba0-48d9d53bcdba";"2637 Swallow Parkway";"Fort Wayne";"IN";"46862";"United States"
"7cf44f35-f838-4dd6-9887-e9c1547f2f45";"1734 Red Cloud Parkway";"Oklahoma City";"OK";"73124";"United States"
"7d0709cd-afe6-4c90-8f92-a10ee5a4400b";"004 Eastwood Hill";"Washington";"DC";"20566";"United States"
"7dcdb23f-9af0-4827-a3ce-5b35b12f0ec5";"14487 Erie Terrace";"Beaumont";"TX";"77713";"United States"
"7dce5076-bfa4-4af8-bfb5-8b66a2b4c485";"16225 Havey Road";"Philadelphia";"PA";"19141";"United States"
"7eb2a6ac-7bfc-447e-ac3b-9ca51beceb84";"50128 Kim Point";"Miami";"FL";"33129";"United States"
"7eb304ce-23f9-40c1-ab80-ff4c10a7b659";"96401 Montana Trail";"Tucson";"AZ";"85748";"United States"
"7edad6f7-4cf6-404e-822f-1d59dd1f2074";"95828 Golf View Trail";"Champaign";"IL";"61825";"United States"
"7edb8e07-8ec1-4d25-aa88-407fa7b25b81";"150 Bayside Road";"Kansas City";"MO";"64130";"United States"
"7ee965f2-5484-421f-ad88-aa5e97f448bb";"5372 Scott Drive";"Hartford";"CT";"6145";"United States"
"7f1294da-94b2-465a-aa98-5c4eeb7a7b69";"5 Milwaukee Pass";"Gaithersburg";"MD";"20883";"United States"
"7f23740c-f9b0-4400-b083-3bb5e59346c8";"7 Ludington Center";"Winter Haven";"FL";"33884";"United States"
"7f34edb1-4045-4652-9df7-481bb52b5635";"7662 Monument Way";"Washington";"DC";"20470";"United States"
"7f4bc490-474f-405b-84a8-dba5bb423323";"6 North Park";"Jamaica";"NY";"11470";"United States"
"7f57bec9-3267-47aa-82b4-e70129d5668a";"29464 Upham Parkway";"Washington";"DC";"20210";"United States"
"7f819b17-f5e7-48d6-9d1b-f38f0566d8e1";"34648 Wayridge Park";"Torrance";"CA";"90505";"United States"
"8019436d-0c98-46c4-a108-74d9c6ac62e4";"922 Carey Junction";"San Antonio";"TX";"78278";"United States"
"802a25eb-b793-4ca6-9486-3f4b064ec901";"031 Rigney Avenue";"Richmond";"VA";"23220";"United States"
"80727235-303c-440f-b5c1-a529b4118c63";"29 Killdeer Alley";"Boulder";"CO";"80305";"United States"
"8080f995-1f9f-4f68-ae43-8f326e407615";"30 Mcguire Alley";"Columbia";"MO";"65211";"United States"
"808b4445-af33-498a-bf40-2efcb6e1ff31";"55631 Grim Junction";"Duluth";"GA";"30096";"United States"
"80bfccee-b2a5-49ba-8c8c-3ce3f4234024";"5 Hansons Plaza";"Washington";"DC";"20535";"United States"
"8153264f-f571-4470-871c-8b8a7ac186ae";"2867 Arkansas Hill";"Lansing";"MI";"48919";"United States"
"819d600d-2a01-42fb-97db-c5a30ad3074d";"616 Union Court";"Detroit";"MI";"48258";"United States"
"81ac2ae8-7ac0-474a-9ab5-b5443f2c44eb";"61468 Clove Drive";"Washington";"DC";"20016";"United States"
"81c82a7b-1b15-4d00-88b5-e01f1fde25a1";"186 Hallows Parkway";"Waterloo";"IA";"50706";"United States"
"81e58a0d-775f-4286-871f-b46e861b173e";"980 Briar Crest Lane";"Cleveland";"OH";"44105";"United States"
"82141c49-b42b-4aa4-b1a7-c12392ee28d3";"1376 Hermina Court";"Great Neck";"NY";"11024";"United States"
"8254bd52-5705-4f64-affb-5917ba348de7";"4 Melby Park";"Santa Barbara";"CA";"93106";"United States"
"82a4cbe3-48e5-41a3-a05b-6684e62963cb";"35948 7th Trail";"Charlotte";"NC";"28263";"United States"
"82bb269b-20b5-4ba5-9a90-6157c5a776c4";"63560 Fuller Lane";"Akron";"OH";"44310";"United States"
"82ddfeb8-16d7-41ba-a464-67c7488d510f";"6148 Killdeer Center";"Las Vegas";"NV";"89110";"United States"
"82de457e-97a1-46a4-b13b-cb43944dcd76";"3887 Stone Corner Park";"Miami";"FL";"33142";"United States"
"83015320-f4bd-4879-a5e4-63039b61278f";"556 Golf Street";"Houston";"TX";"77228";"United States"
"836029b6-1e20-4089-8c5b-9e8ef8a921d1";"083 Cardinal Plaza";"Las Vegas";"NV";"89166";"United States"
"83b8df9d-4dd5-4b58-b9b8-5f678dc80ef3";"4 Vermont Lane";"Richmond";"CA";"94807";"United States"
"83b98543-2c28-4596-aaa5-e5dfbbe6c47c";"86 Springview Plaza";"Delray Beach";"FL";"33448";"United States"
"83cf24d2-f173-4d39-9e20-1959697e311b";"7 Bobwhite Hill";"New York City";"NY";"10260";"United States"
"83ed1e74-b9b2-440c-904b-6f66270c6eda";"6836 Mcbride Way";"Sacramento";"CA";"95818";"United States"
"842f7fa6-187d-413c-9e35-5d192d753f33";"924 Gina Drive";"Tucson";"AZ";"85732";"United States"
"8432ed47-982a-4e41-b21c-9dcc1e117e26";"20 Briar Crest Hill";"Odessa";"TX";"79764";"United States"
"84440f7d-9e3c-4970-9dba-992f870fe3b8";"92 Sauthoff Plaza";"Lubbock";"TX";"79405";"United States"
"84a185db-71ea-46b6-89fc-1d2a6953bbbf";"16 Dahle Drive";"Houston";"TX";"77075";"United States"
"84d92479-c5ef-46e5-9340-f7269030b61a";"69 Grim Lane";"Fresno";"CA";"93786";"United States"
"84e3c467-4f64-4e03-8eb3-27c05a177e23";"2 Derek Parkway";"Las Vegas";"NV";"89160";"United States"
"8520d08b-f8fc-4e33-82f7-22212e617f9e";"279 Sunbrook Pass";"Pittsburgh";"PA";"15286";"United States"
"862f0028-3ff0-4807-afe8-6041a9fe5834";"88382 Hayes Plaza";"Denver";"CO";"80243";"United States"
"8660d707-604c-404b-88cc-1a9f61644eae";"41339 Wayridge Crossing";"Trenton";"NJ";"8695";"United States"
"8674de11-74d8-4a34-ba9c-e3b7a40396ac";"211 Hoffman Parkway";"Springfield";"IL";"62711";"United States"
"869c0413-336e-4eb2-a9ce-995ee0bc2293";"8 Merrick Point";"Santa Fe";"NM";"87592";"United States"
"86a3297a-0bdc-4bc7-9fdb-a5169591d835";"97 Southridge Pass";"Gainesville";"FL";"32605";"United States"
"86a3fe57-bd70-4add-83fe-9a4615a1f68b";"5404 Golf Street";"Roanoke";"VA";"24024";"United States"
"86f53b87-0a0e-412b-81c6-0f121c6d9ba5";"7816 Springview Circle";"Houston";"TX";"77090";"United States"
"872cf6ee-ddde-4c24-ab8e-466e64b74d03";"538 Killdeer Circle";"El Paso";"TX";"88525";"United States"
"87c1f021-d8a4-4675-b060-56b82fa75e69";"5 Bellgrove Terrace";"Houston";"TX";"77281";"United States"
"87cd163e-63bf-4572-9783-48ce724f7dec";"42831 Walton Center";"Chicago";"IL";"60614";"United States"
"887642cc-fc21-4c59-b173-b0b0bc3596be";"4856 Scoville Parkway";"Minneapolis";"MN";"55458";"United States"
"894148a9-4741-44ac-b232-0c0ee1e181b2";"873 Ronald Regan Avenue";"Tulsa";"OK";"74108";"United States"
"8943f88a-e73f-49ef-95a5-7ca7273b3124";"27 Moulton Park";"Scottsdale";"AZ";"85260";"United States"
"89b22634-50b7-4a80-ab43-7d57a6c33c97";"4242 John Wall Terrace";"El Paso";"TX";"79977";"United States"
"89c1c91e-271a-4d36-91ba-ec0ac2ba2045";"593 Doe Crossing Junction";"Charlotte";"NC";"28205";"United States"
"89d558da-bb3b-491d-b73f-431719782716";"183 Sundown Street";"Philadelphia";"PA";"19151";"United States"
"8a7be758-9c28-4290-874f-2f9cfcfd9a1e";"7159 Ridgeview Trail";"Fort Myers";"FL";"33994";"United States"
"8a7d7000-9c33-4887-a9d6-896dc17a9995";"8 Kings Trail";"Birmingham";"AL";"35254";"United States"
"8a913455-52a8-4839-a884-cd58e531b075";"5544 Dryden Place";"Waterbury";"CT";"6721";"United States"
"8aaa4f58-1715-4492-b206-72a27a5c1f64";"704 Towne Road";"Philadelphia";"PA";"19151";"United States"
"8aaa93d7-82b7-4ee8-bd14-b7c10bcc1c16";"751 Haas Junction";"Amarillo";"TX";"79176";"United States"
"8b55dd0c-8160-49be-8131-6d51828174c4";"164 Algoma Park";"Pasadena";"CA";"91109";"United States"
"8b681512-a3ba-46df-bfbc-5f9a02db8f9f";"7704 Washington Drive";"Savannah";"GA";"31405";"United States"
"8b6f77a0-1fac-4916-8cfe-040e611f5d15";"9742 Stone Corner Crossing";"El Paso";"TX";"88519";"United States"
"8c23c2bc-5003-4ace-a452-440b6144635b";"23 Charing Cross Court";"Fresno";"CA";"93709";"United States"
"8cde37f9-c394-4f0e-a161-76757bbbc89b";"24 Larry Crossing";"Toledo";"OH";"43656";"United States"
"8d029152-9142-4390-a9f4-d26dbd102dcf";"805 Michigan Trail";"Atlanta";"GA";"30323";"United States"
"8d2ecf8b-5944-4524-9135-8ff72954c503";"656 Cherokee Way";"Salt Lake City";"UT";"84170";"United States"
"8d595d42-aee2-4ffa-a46e-2fe2ab21c46a";"90963 Menomonie Alley";"Saint Louis";"MO";"63150";"United States"
"8d5e2471-f051-4a64-b99b-13752d650313";"7942 Commercial Center";"Wilkes Barre";"PA";"18706";"United States"
"8d63c4f8-f007-455c-a433-6b83c4c2d7d9";"915 Harbort Court";"Huntington Beach";"CA";"92648";"United States"
"8daee8b6-d801-4dcd-b36a-6e5ea3fda31c";"974 Kennedy Lane";"Los Angeles";"CA";"90189";"United States"
"8dd5538e-9053-4c28-a2d9-8cc451eec859";"8 Red Cloud Avenue";"Trenton";"NJ";"8695";"United States"
"8e1bc399-d97e-4320-95ba-d0a7bd5dac35";"53 Mcbride Plaza";"Beaumont";"TX";"77713";"United States"
"8e9e1056-09eb-4fb1-9588-7c225f7a0166";"4478 Loeprich Alley";"Corpus Christi";"TX";"78405";"United States"
"8ec43d72-f6cd-4931-ace6-889b27ca565b";"82 Starling Place";"Jamaica";"NY";"11499";"United States"
"8ecc644b-b92d-44e1-a4a9-b987319def0a";"98 Mitchell Court";"New Orleans";"LA";"70179";"United States"
"8f1cb45b-a107-400f-b9d1-4d1d822ac08b";"15 Tomscot Hill";"Baltimore";"MD";"21290";"United States"
"8f6df698-cfb8-4656-af3f-6495b5126fcc";"3 Melrose Crossing";"Wichita";"KS";"67260";"United States"
"8f9893d9-51e6-4cd4-b81d-f13bd2d551ca";"454 Becker Hill";"Reston";"VA";"22096";"United States"
"902b72b3-4d29-41a1-81f5-a04c5192ba85";"954 Roth Way";"Athens";"GA";"30610";"United States"
"903cfe99-d113-47a0-be21-dbc57da4e811";"1 Gulseth Plaza";"Whittier";"CA";"90610";"United States"
"90969da6-0a77-457b-9d00-1b82e9c792c1";"43202 Stephen Crossing";"Memphis";"TN";"38126";"United States"
"90b38aaf-368b-479c-8d73-cbbc2a769543";"12 Merrick Trail";"Washington";"DC";"20220";"United States"
"912ebd87-36ac-48f7-a521-fb535abae6b4";"3757 Ridge Oak Hill";"Des Moines";"IA";"50320";"United States"
"91551057-c157-47c5-b017-212efc9ecd29";"1990 Hagan Terrace";"Burbank";"CA";"91505";"United States"
"915a84d6-2861-4619-b3a5-2ef049b37ac5";"5536 Northport Alley";"Fort Wayne";"IN";"46852";"United States"
"917ff735-c067-41b4-a487-bceb05e08dc6";"2 Monica Terrace";"Atlanta";"GA";"30328";"United States"
"91b89ac3-60c0-493e-8fdc-6c238b141359";"034 Hanover Avenue";"Vancouver";"WA";"98682";"United States"
"91d4f248-01b5-46a0-bb95-bba47a7e25b1";"26 Steensland Drive";"Bronx";"NY";"10469";"United States"
"9290ee68-2391-4e3b-b3f0-3ecfceb8a556";"95501 Village Lane";"Melbourne";"FL";"32941";"United States"
"92cc3519-e89e-4ce9-a573-4b15206584b1";"35 Portage Road";"Columbus";"GA";"31914";"United States"
"92e7cae2-6d22-441d-bdff-f498f1753523";"1762 Merchant Place";"Bethesda";"MD";"20892";"United States"
"93b1252d-518c-4197-b3cc-4c2af6aa4364";"395 Bluejay Road";"Laurel";"MD";"20709";"United States"
"93cd5807-0158-48d9-a783-7acb2174ea88";"152 Nova Drive";"Knoxville";"TN";"37919";"United States"
"942fce4c-b049-4224-aaf8-4f394dc0085a";"55544 Lien Drive";"Tucson";"AZ";"85715";"United States"
"94672077-60ce-4ac0-b304-99ee3e5dbc48";"0623 Cardinal Court";"Philadelphia";"PA";"19104";"United States"
"94d9399d-2211-4d71-8c95-8ee8107ba5f4";"5546 Red Cloud Lane";"Mesquite";"TX";"75185";"United States"
"9553cd56-212b-405a-9099-553e49881367";"2 Miller Avenue";"Santa Monica";"CA";"90410";"United States"
"9565ab07-e656-4c28-824e-f5750698134c";"28385 Hoard Avenue";"Louisville";"KY";"40280";"United States"
"95d9f59b-6c01-4b95-a198-848dd9974c52";"2 Nelson Street";"Rochester";"NY";"14646";"United States"
"95fcdd22-0e4c-42a2-b038-738c8752836d";"35824 Clemons Parkway";"Jackson";"MS";"39236";"United States"
"9620754d-4bca-4b96-9d80-11a28ee7fdf8";"875 Morrow Circle";"San Bernardino";"CA";"92415";"United States"
"96614ff9-dcc4-4fe0-a833-68b06690387b";"48785 Grover Circle";"Jackson";"MS";"39204";"United States"
"966f3334-6ce9-4906-9c3d-4030c0f604fa";"785 Wayridge Alley";"Dearborn";"MI";"48126";"United States"
"96769cf5-7f51-4411-818a-6efff1fea6e0";"7660 Saint Paul Point";"Reno";"NV";"89519";"United States"
"9696c481-ec73-4ffd-852f-4cd6ccb4b911";"584 Browning Place";"Tucson";"AZ";"85705";"United States"
"96b3f3c3-8233-428b-b0f9-e6c7afb05a80";"05 Vernon Way";"Houston";"TX";"77288";"United States"
"973af08b-a8a0-497f-a31c-d426005563d0";"08642 Rutledge Drive";"Miami";"FL";"33190";"United States"
"9765b5b4-7d63-4c12-8033-87ec9e641ae3";"83 Delladonna Street";"Omaha";"NE";"68164";"United States"
"978c4d43-2290-40e1-b284-51025309ab65";"9244 Debra Circle";"Cleveland";"OH";"44105";"United States"
"97a07181-1b59-4d95-976f-ea3e089684b2";"84 Veith Center";"London";"KY";"40745";"United States"
"97b869d9-2a7e-4e1e-aba3-84044ac3626f";"2252 Johnson Road";"Lakeland";"FL";"33811";"United States"
"97c1b543-c4d0-4892-a6d1-608671f07272";"0832 Carioca Avenue";"Chesapeake";"VA";"23324";"United States"
"97dfda3c-ce35-457a-95ee-24b6815e7128";"1715 Eagan Center";"Santa Barbara";"CA";"93111";"United States"
"97f7e280-69d6-4dad-9f69-b79527888895";"37709 Forest Run Pass";"Philadelphia";"PA";"19178";"United States"
"98459f24-7c65-47ce-b52b-59135707b97f";"4 Birchwood Park";"Portland";"OR";"97211";"United States"
"984b6df4-ec05-4d7a-a851-57bcd1a8d5fd";"44 South Circle";"Boston";"MA";"2203";"United States"
"98d6cc9b-dfbc-42a9-82ec-a281dd96ba4f";"0660 Nobel Avenue";"Dallas";"TX";"75277";"United States"
"9939371f-9885-4f3a-83e6-8df938d64fa9";"46450 North Crossing";"Hampton";"VA";"23663";"United States"
"9a9bb8f9-05c8-4ba2-ab2f-b37a062b03f1";"01385 Johnson Way";"San Francisco";"CA";"94154";"United States"
"9aa41ca1-1a94-425d-b128-e91646236c69";"1 Holmberg Road";"Cincinnati";"OH";"45208";"United States"
"9ab50414-c0ed-46c6-a920-a26b2a7ae006";"483 Morningstar Park";"Madison";"WI";"53785";"United States"
"9b480182-1c31-460a-9528-cfa7091c0b97";"895 Farwell Point";"San Diego";"CA";"92132";"United States"
"9b4f6863-e760-46e4-9543-5bdbf207a2ba";"19 Colorado Way";"Sacramento";"CA";"94297";"United States"
"9b5a87b8-33fd-4419-a01c-e4589b4e3084";"3549 Cherokee Junction";"Winston Salem";"NC";"27110";"United States"
"9b70d6ca-2797-4fd6-bee7-767ba9222438";"11 Lien Terrace";"Huntsville";"AL";"35815";"United States"
"9c31e4e6-051a-440f-80e2-cff9c107021e";"64454 Pearson Way";"Dallas";"TX";"75287";"United States"
"9c896f20-8e5d-4462-bd8e-6c7a2d00c214";"2 Anhalt Place";"Corona";"CA";"92878";"United States"
"9c9194c0-a6ab-4cf9-97b4-83ceb4a346a3";"96246 Jackson Court";"Portland";"OR";"97240";"United States"
"9c9890a8-d4f5-4e41-a532-d630a48f6502";"4292 Butternut Trail";"Fort Lauderdale";"FL";"33330";"United States"
"9cc0f71f-a401-4a3e-adf5-117e81d8db04";"02 Manufacturers Avenue";"Pittsburgh";"PA";"15286";"United States"
"9cd88324-388f-4c29-aaad-a5e9fcbb921f";"2167 Elka Pass";"Cedar Rapids";"IA";"52405";"United States"
"9cf09505-f978-41ac-8459-39405e54418b";"146 Russell Court";"Biloxi";"MS";"39534";"United States"
"9d331121-5906-43e8-8526-f71b60dd91e6";"961 Huxley Way";"Charleston";"WV";"25305";"United States"
"9d3419fa-7b3a-4702-a61e-c85b8bc442f7";"437 Park Meadow Pass";"Wichita";"KS";"67236";"United States"
"9d44c98e-e895-4a65-892f-1b13f2b7b3d3";"85 Colorado Parkway";"Oakland";"CA";"94622";"United States"
"9e30fbad-265b-4ee5-a19b-2f39937d0b78";"93636 Oneill Crossing";"Roanoke";"VA";"24048";"United States"
"9e91c242-97a6-43c1-97f4-39135b446521";"33507 Meadow Vale Alley";"Tempe";"AZ";"85284";"United States"
"9edaaa17-7937-423b-9030-e664040f7f37";"2494 Rockefeller Pass";"Garland";"TX";"75044";"United States"
"9edc1ceb-8063-4afb-b5eb-5c08301f83cd";"61870 Merchant Way";"Denton";"TX";"76205";"United States"
"9f110159-30df-4fc2-bb97-cb3f2d041afe";"417 Knutson Crossing";"Seattle";"WA";"98185";"United States"
"9f114a2c-376d-40c0-9838-aa743cf74ac0";"4 Surrey Plaza";"Phoenix";"AZ";"85072";"United States"
"9f5a237a-c07c-4ac3-8fb3-5763614e586c";"02302 Dorton Pass";"San Angelo";"TX";"76905";"United States"
"9fb45faa-0270-444e-bdad-17034c94d4fb";"3 Golden Leaf Hill";"Whittier";"CA";"90610";"United States"
"a0149ec9-825f-422d-bf36-baa1fae9e265";"3 Sommers Court";"Valdosta";"GA";"31605";"United States"
"a039df47-3384-4413-8c03-b05abbf53c36";"242 Pepper Wood Terrace";"Pasadena";"CA";"91117";"United States"
"a0950613-4063-4256-b358-c35a6060525c";"1 1st Lane";"Cleveland";"OH";"44111";"United States"
"a0a93878-495d-44b2-9841-bed3fb6f08d3";"7 Heffernan Parkway";"El Paso";"TX";"88546";"United States"
"a0c95047-f059-4cc2-afab-3b9a6d8685de";"939 Stoughton Plaza";"Gary";"IN";"46406";"United States"
"a16c343f-1073-4957-97cb-b4784ad4d8b7";"44 Thompson Circle";"Marietta";"GA";"30066";"United States"
"a175b52a-13c6-4132-b186-9235311de127";"3 Comanche Way";"Asheville";"NC";"28805";"United States"
"a180b49c-0011-4849-8417-86326194e157";"38848 Florence Street";"Albuquerque";"NM";"87140";"United States"
"a182c9b0-e3e5-4101-a5b3-a640cf118ea5";"3 Rieder Terrace";"Wilkes Barre";"PA";"18706";"United States"
"a1d001f5-2e4c-4992-85da-0693c6a517db";"4 Esker Hill";"Oklahoma City";"OK";"73135";"United States"
"a1d1d302-e2da-46b7-a811-eb6bd7f4f465";"40 Badeau Center";"Kansas City";"KS";"66112";"United States"
"a1eabbcf-2024-4160-a9a8-6c940b9cd810";"12797 Grayhawk Way";"Sacramento";"CA";"95852";"United States"
"a21ba4e4-c448-4756-9d4a-0cd74cf73c85";"12087 Spenser Crossing";"Pittsburgh";"PA";"15266";"United States"
"a2676190-876d-449d-9c22-c807dd5b59a7";"689 Mockingbird Center";"Toledo";"OH";"43635";"United States"
"a2bb6cde-46b7-4160-ae2a-b472bf3cd240";"0039 Mifflin Crossing";"Washington";"DC";"20210";"United States"
"a2c672d2-afda-4406-abe8-a49512b68e40";"1 American Ash Trail";"Toledo";"OH";"43635";"United States"
"a2d8a9a0-a1a6-4855-9a3b-b0dc81e8b2fa";"434 Blaine Point";"Salt Lake City";"UT";"84105";"United States"
"a3955a8b-075c-43a7-a8c7-496f9d40d4ca";"256 Claremont Street";"Montgomery";"AL";"36104";"United States"
"a3b71e4e-0217-4e62-a9c6-39df2b66dd1d";"85405 Buena Vista Park";"Wilmington";"DE";"19810";"United States"
"a40deda7-2c6c-4205-8856-6094f2419e8a";"7050 Cascade Way";"Boston";"MA";"2114";"United States"
"a4261a34-3000-4a14-9ed7-5d9cd4a4ec83";"86432 Mallard Court";"Knoxville";"TN";"37995";"United States"
"a446ed59-cd2d-4389-bf8b-db14016223f6";"495 Paget Point";"Monticello";"MN";"55590";"United States"
"a4492ed1-4ae1-41e1-9829-95cb61dc864a";"52133 Meadow Vale Hill";"Albuquerque";"NM";"87140";"United States"
"a45ca858-81eb-4b03-9db5-b8fef8168b8c";"34 Comanche Center";"Providence";"RI";"2912";"United States"
"a48e3886-a72c-4aa6-8bb8-da8b42e61211";"67 Toban Avenue";"El Paso";"TX";"88584";"United States"
"a4d23af8-964c-4546-b2ff-d7c203d860cc";"90 Southridge Trail";"Oklahoma City";"OK";"73124";"USA"
"a4ddaeb0-fc52-4061-b89b-188c8e1f1db1";"5 Drewry Parkway";"New York City";"NY";"10155";"United States"
"a5043f12-53b7-423a-b9e4-f2d59de19f76";"37 Sutteridge Street";"Madison";"WI";"53790";"United States"
"a50d79d3-5068-4012-a8c9-9334150c8c79";"3360 Calypso Court";"Louisville";"KY";"40205";"United States"
"a551d359-18b6-4f03-911d-302f7f7a9610";"2684 Sherman Road";"South Bend";"IN";"46620";"United States"
"a59bcd92-4a14-4004-bfc0-52249c5f8085";"28140 Manufacturers Road";"Tyler";"TX";"75799";"United States"
"a5cc4ceb-ca2a-4818-9471-cec4f4b440d7";"8 Hayes Place";"Melbourne";"FL";"32941";"United States"
"a5e1b092-1b96-41da-9b39-7dd5f07f6997";"85 Hermina Way";"Waterbury";"CT";"6721";"United States"
"a5ea2eb8-083e-48c7-832d-5f2a25f1a7c9";"33 Pearson Alley";"Sparks";"NV";"89436";"United States"
"a69e76f5-2eae-4464-8442-a8f5a786141f";"01540 Park Meadow Lane";"Milwaukee";"WI";"53285";"United States"
"a7004491-4329-4f71-b7a7-2ac3bb310bf1";"89 Randy Trail";"Raleigh";"NC";"27690";"United States"
"a709b2ae-b303-4048-a3a7-153260dc913c";"07055 Bunker Hill Park";"Midland";"TX";"79705";"United States"
"a7af587d-df43-4026-ae33-097df84013b3";"8388 Karstens Point";"Nashville";"TN";"37245";"United States"
"a7c309c7-7a33-4b6f-a7c5-6bc60f7bb316";"984 New Castle Lane";"Portland";"OR";"97240";"United States"
"a7e81b5b-53a5-4498-831f-0f9da09b4ff8";"73 Jackson Avenue";"Albuquerque";"NM";"87201";"United States"
"a8279a2b-a635-4e40-872e-2365bb58590d";"06186 Declaration Avenue";"Grand Rapids";"MI";"49518";"United States"
"a8811f8a-dc63-4e39-bd7a-bd80d462209b";"49 Garrison Point";"Boca Raton";"FL";"33487";"United States"
"a89be765-f7c1-40ad-b801-f989dc061854";"96 Mifflin Terrace";"Springfield";"IL";"62711";"United States"
"a8cee752-be91-4900-bfa9-3272c2272a72";"500 Gateway Place";"Anchorage";"AK";"99599";"United States"
"a9347c0c-b4ab-40fc-872c-f24994c70eb0";"2 Debs Parkway";"Raleigh";"NC";"27690";"United States"
"a9498d7b-72f9-4f10-b548-2166e4292baf";"4 Oakridge Junction";"Sacramento";"CA";"94250";"United States"
"a97c58fb-60da-4336-bb3e-1a45d4273b6b";"99 Clove Street";"Montgomery";"AL";"36104";"United States"
"a988a0a0-59a7-47d8-bc57-1b51ffa1ebe5";"0 Lerdahl Center";"San Diego";"CA";"92191";"United States"
"a9891dff-a3e9-4856-8a21-f406cf659799";"1809 Golf Course Trail";"Philadelphia";"PA";"19141";"United States"
"a9aaae61-0a82-4929-9851-4d57ca1e14a9";"7917 Rigney Lane";"Van Nuys";"CA";"91499";"US"
"a9b9d722-62c8-498b-a3d6-27247980be44";"39185 Division Circle";"San Diego";"CA";"92145";"United States"
"a9fbf203-155e-4176-bda0-9a6fdf7123fb";"45204 Holmberg Court";"Santa Barbara";"CA";"93106";"United States"
"aac67610-ddb7-46c8-801d-5e59519b4ac8";"44842 Fieldstone Parkway";"Shreveport";"LA";"71137";"United States"
"ab1172eb-632f-4227-a12e-398623e47380";"5120 Manley Center";"Philadelphia";"PA";"19151";"United States"
"ab182b3c-5e27-4720-8cdd-e9cd46fec3b2";"65623 Oakridge Circle";"Austin";"TX";"78703";"United States"
"ab21993b-8b9e-4eb8-9953-de7be76273c8";"1525 Eagan Hill";"Colorado Springs";"CO";"80935";"United States"
"ab298424-4d2b-4478-b911-6a8d3a604eea";"4330 Hazelcrest Point";"Richmond";"VA";"23213";"United States"
"ab441825-ae9f-44fe-8302-8c52bcea8232";"17475 Center Point";"Shreveport";"LA";"71151";"United States"
"ac7c4d9e-21d2-4fc8-93ef-5398d07f43b1";"48 Troy Center";"Idaho Falls";"ID";"83405";"United States"
"acbcc154-7b8d-4d14-bb8d-954938fd2427";"7645 Dapin Lane";"San Jose";"CA";"95128";"United States"
"ad016756-1275-4ca7-94be-a3e512a529fe";"81055 Russell Alley";"New York City";"NY";"10045";"United States"
"ad31325b-dced-42b3-824d-e60574f847af";"9629 Commercial Terrace";"Cleveland";"OH";"44105";"United States"
"ad90b11d-4d70-42d3-bc87-1fddc7547d08";"40159 Mockingbird Pass";"Jackson";"MS";"39216";"United States"
"ad940d95-71d7-4049-ba3f-181bd46c83d8";"701 Ohio Alley";"Clearwater";"FL";"34629";"United States"
"add9e310-6c7a-4570-9dfc-86d526661969";"6408 Heffernan Lane";"Tampa";"FL";"33680";"United States"
"ade5dcae-d095-4e44-a269-933df5084511";"0771 Del Mar Crossing";"Seminole";"FL";"34642";"United States"
"adeebdd3-d107-4f53-b0c7-d682db582fb1";"472 Ohio Trail";"Topeka";"KS";"66622";"United States"
"ae027bd6-c8e9-427e-b368-47b447ee816c";"9342 Novick Avenue";"Dallas";"TX";"75287";"United States"
"ae1b574b-84a2-4594-966d-b09da570b98e";"7 David Road";"Kansas City";"KS";"66105";"United States"
"ae4747ef-e30a-464d-b035-0b47e39b3f33";"38 Russell Crossing";"Tacoma";"WA";"98464";"United States"
"ae817dd4-85e7-40d9-b5ba-dfbe53d12e9a";"0075 East Place";"Little Rock";"AR";"72209";"United States"
"aea32d20-1329-4d03-855c-0ff33c18ff0e";"3 Mitchell Drive";"Durham";"NC";"27710";"United States"
"aea68470-5518-46b4-a835-f2316d2e9f4e";"01221 Luster Road";"Atlanta";"GA";"31106";"United States"
"aee6b93f-f9ac-4a49-b412-c086eb07c9ec";"9402 Heath Junction";"Los Angeles";"CA";"90035";"United States"
"aef135d6-7095-4df2-927a-0487f2deaaac";"4480 Monterey Street";"Wichita";"KS";"67210";"United States"
"aef5543c-e283-479d-8dde-a0fdfb47ffb2";"61 Twin Pines Way";"Hartford";"CT";"6105";"United States"
"af3e0e4e-6ebb-4153-b4ab-53daee0aed55";"953 Delladonna Point";"New York City";"NY";"10270";"United States"
"af560a77-ee12-43d7-8e2c-b5d5d8612af3";"6338 Artisan Lane";"Waco";"TX";"76711";"United States"
"af56e754-e5d9-4c28-a498-9d6532928bfa";"990 Parkside Road";"Greensboro";"NC";"27404";"United States"
"afdc64a2-cd0f-4246-9578-6feb9a189012";"568 Jenna Road";"Los Angeles";"CA";"90030";"US"
"b046053b-6884-42bd-961c-a0b0c4b81720";"1 Maple Way";"Jacksonville";"FL";"32204";"United States"
"b0a6bbbc-3f3d-4113-97e7-bcca5e5d6186";"81 Butterfield Terrace";"Fairbanks";"AK";"99709";"United States"
"b0e2f79c-9bef-4031-bcdb-ab99dbd539b0";"8 Marcy Avenue";"Harrisburg";"PA";"17121";"United States"
"b0ed3d24-6c69-4e33-a869-78a0a0a1fa36";"694 Dwight Terrace";"Salt Lake City";"UT";"84105";"United States"
"b1099589-5ab9-4956-83c3-953cc3381c10";"887 Brentwood Place";"Sioux Falls";"SD";"57105";"United States"
"b15aa060-7822-4c89-809b-32d39e556650";"47 Michigan Park";"Richmond";"VA";"23272";"United States"
"b18cb1b3-1e3b-4677-a641-ebd572bbd975";"1 Milwaukee Trail";"Mesquite";"TX";"75185";"United States"
"b1a30b45-2484-44d6-9398-eb849ef97f73";"84248 Dakota Crossing";"Chattanooga";"TN";"37416";"United States"
"b1aa28f9-3fb1-4ac7-b19a-3d06a26cc6c8";"75 Scott Center";"Houston";"TX";"77045";"United States"
"b23b7974-aa68-4d69-b610-c5dac4b6140f";"26 Annamark Junction";"Jamaica";"NY";"11407";"United States"
"b262894b-2a2f-4ae2-bcea-1ddca0113193";"9 Clyde Gallagher Lane";"Houston";"TX";"77293";"United States"
"b29aabe1-383a-46c9-b062-1c1bf02d5a67";"86823 Hooker Plaza";"El Paso";"TX";"88530";"United States"
"b2a03e98-eb6a-4d84-b966-687c0f718da6";"28371 Sauthoff Road";"West Hartford";"CT";"6127";"United States"
"b2a64ee5-7388-4e37-a6a3-133716ce4b0d";"655 Lighthouse Bay Drive";"Joliet";"IL";"60435";"United States"
"b2ab2698-8fca-4ea6-89f8-4ed8c03fc6bf";"89786 Mesta Parkway";"Charlotte";"NC";"28230";"United States"
"b2ceffa3-e5f4-4811-ab26-22c6678bdb89";"3 Del Mar Junction";"Arvada";"CO";"80005";"United States"
"b2d259be-cedd-48fd-8e6b-d402abd6d7b6";"3 Holmberg Lane";"Bellevue";"WA";"98008";"United States"
"b2defd56-81d7-4982-bef0-1b691f52222d";"42 Gateway Road";"San Bernardino";"CA";"92410";"United States"
"b2f1a247-9320-46d9-ad4d-297848d8db48";"791 Sachtjen Road";"Lakeland";"FL";"33811";"United States"
"b2f21ad5-e51f-4973-9024-f19ca9614a2c";"9 Rusk Point";"Richmond";"VA";"23213";"United States"
"b3248d54-6f13-4eac-982c-4a468bb44d7d";"5 Artisan Point";"Colorado Springs";"CO";"80995";"United States"
"b3384275-6fcf-460b-bc06-57b35031c11a";"2721 Sunfield Parkway";"Sioux City";"IA";"51105";"United States"
"b3594fe5-a579-4899-ac4e-c0e069c3289b";"2 Village Center";"El Paso";"TX";"79977";"United States"
"b39cb9d9-ddbf-43c0-a194-4ffa35318144";"24 Redwing Plaza";"Irving";"TX";"75062";"United States"
"b3bd6817-a31a-4f64-949e-11fd0f254021";"357 Corscot Center";"Duluth";"MN";"55811";"United States"
"b3c6fb38-bd8f-45d7-aeef-11d31d82ef97";"77 West Lane";"Van Nuys";"CA";"91499";"United States"
"b41124ff-36b7-4e94-8668-ff6d83941f1e";"445 Arizona Pass";"West Palm Beach";"FL";"33411";"United States"
"b4171f61-2b7a-4a47-92be-30c8be046fd4";"5165 Meadow Vale Lane";"Conroe";"TX";"77305";"United States"
"b4179516-53a9-4e8c-aa4c-04675c478703";"979 Summit Place";"Madison";"WI";"53716";"United States"
"b44c2152-8e63-4753-92a9-5aa6d5b09752";"2422 Hauk Center";"Roanoke";"VA";"24040";"United States"
"b4817ee4-df78-491f-9429-61f419532419";"3120 Anniversary Way";"El Paso";"TX";"88553";"United States"
"b4f88283-79f2-4114-8ea3-1ac86bcb4a05";"87064 Stone Corner Alley";"Cheyenne";"WY";"82007";"United States"
"b51ea769-8887-4d6f-a455-f8c654457acf";"002 Dennis Park";"Asheville";"NC";"28805";"United States"
"b5519d21-9150-44cb-98c1-0a99eb106b6b";"94 American Ash Hill";"Long Beach";"CA";"90810";"United States"
"b58a1395-f619-47af-ac63-b946aaff7de7";"12056 Onsgard Road";"Littleton";"CO";"80126";"United States"
"b5ad5783-082c-4033-9b0f-e2c040763572";"4 Kenwood Court";"Newport Beach";"CA";"92662";"United States"
"b5ba62bf-5dc5-4b46-9678-6ba115fed1a5";"6 Fallview Way";"Corona";"CA";"92883";"United States"
"b5dae8d1-e6bb-4279-9ab6-658dbf671df5";"3 Cherokee Circle";"Kingsport";"TN";"37665";"United States"
"b60199bf-b5e8-44ee-8e21-278ed89385a9";"56733 Monterey Trail";"Buffalo";"NY";"14225";"United States"
"b60ce7ec-8dda-4c87-a00e-a86916bbb118";"5 Fairfield Drive";"Chesapeake";"VA";"23324";"United States"
"b65b27ee-e927-4920-a9d9-450b59e218ef";"56962 Ryan Point";"Rochester";"NY";"14619";"United States"
"b661b1c1-9e4c-4d5b-a885-eb896fb66101";"49682 Crownhardt Pass";"Newport News";"VA";"23612";"United States"
"b672e725-442f-4855-9f38-b6287ae14ba8";"848 Haas Hill";"San Diego";"CA";"92191";"United States"
"b6aaa793-a620-4f8e-80dc-0edcb5ba7ccf";"3474 Cottonwood Court";"Phoenix";"AZ";"85062";"United States"
"b6c7e880-d6ed-4ed9-9359-c3187a834b86";"34954 Manley Road";"Scottsdale";"AZ";"85260";"United States"
"b6c95c8b-c8dc-4025-8df6-4b57ab295869";"897 Lakewood Circle";"West Hartford";"CT";"6127";"United States"
"b6e38c4c-fe21-4fde-b27b-8ae46a47bcbe";"895 Judy Pass";"Oklahoma City";"OK";"73167";"United States"
"b70afa83-d5a2-4053-b465-a51049245f30";"4 Porter Terrace";"Sacramento";"CA";"95818";"United States"
"b77b16f4-da69-4372-9a2c-63f4179e67db";"6196 Tennessee Plaza";"Santa Fe";"NM";"87505";"United States"
"b78f4b40-3340-4ec9-a65d-244cc156910a";"68725 Cherokee Drive";"Cincinnati";"OH";"45254";"United States"
"b7fd1dca-0257-4833-a057-d2f05cc65578";"2 Sommers Street";"Austin";"TX";"78703";"United States"
"b8246fb0-c2b0-4cfe-becb-96a5a829334b";"412 Green Way";"Knoxville";"TN";"37931";"United States"
"b82f6c7b-7e2d-4007-8ec2-016485d97885";"25961 Haas Alley";"Sacramento";"CA";"94291";"United States"
"b85473db-3344-4467-a814-6324af2759d2";"4272 Thompson Way";"New Orleans";"LA";"70142";"United States"
"b89df27e-7aef-4c97-867e-a2831494658a";"4 South Center";"Evansville";"IN";"47719";"United States"
"b8bdf6a5-c88d-4f0c-aacd-b00a68973f86";"0 Mitchell Hill";"Winston Salem";"NC";"27150";"United States"
"b8db1cae-705e-42f6-9b44-f4889cf2a4ea";"0 Dunning Terrace";"New York City";"NY";"10125";"United States"
"b93668ff-fdaa-48f4-a8f5-bc20c20f5518";"62590 Namekagon Pass";"Washington";"DC";"20022";"United States"
"b940e7a4-0a7e-4a14-95a6-c09c089f7f85";"9 Esker Alley";"Lubbock";"TX";"79405";"United States"
"b94e51fd-f2dd-492d-9083-0abc9d2acb72";"79 Huxley Circle";"Wilmington";"NC";"28405";"United States"
"b95f3d41-7e13-4450-bf07-7d48e75037b9";"54 Florence Terrace";"Bronx";"NY";"10469";"United States"
"b9868fd8-7870-437b-8ac3-c43c81ef098b";"74 Dahle Alley";"Delray Beach";"FL";"33448";"United States"
"b9966370-2685-4bcc-b964-7ffc996728cb";"936 Independence Avenue";"Beaufort";"SC";"29905";"United States"
"b9cde9e1-829c-4d9b-8c6c-54491ad67923";"26206 Clarendon Plaza";"Arlington";"TX";"76096";"United States"
"b9eb560e-b785-4000-a5f4-f079583b5dbf";"9751 Lotheville Circle";"Washington";"DC";"20409";"United States"
"b9f0b5e4-0feb-4dd2-a5f7-dabb861a95ea";"75949 Nancy Alley";"Washington";"DC";"20078";"United States"
"ba28b75b-0a4e-4e6a-a18c-c9a59004d934";"9446 West Park";"Portland";"ME";"41009";"USA"
"ba7b1579-daf4-4695-ba8e-c6bc9236acb4";"3 Dennis Crossing";"Independence";"MO";"64054";"United States"
"ba96ee6a-30c5-485e-8036-fe657c77d1d5";"66987 SChurz Park";"Erie";"PA";"16505";"USA"
"bab76344-ee8e-45e4-8105-5b9e2cbd6c17";"8 Hollow Ridge Pass";"Peoria";"AZ";"85383";"United States"
"bae3e149-3b1f-4ec1-bb68-bcb2fc88f03c";"686 Atwood Crossing";"Terre Haute";"IN";"47812";"United States"
"bb3b67a8-3065-4fef-99d5-a4d94e82ead9";"0 Londonderry Drive";"Knoxville";"TN";"37919";"United States"
"bba38ab1-22e3-40be-99e2-a0836c9feeb8";"21857 Hallows Park";"Atlanta";"GA";"30351";"United States"
"bbde4792-f531-48f4-ad51-b7ddd094a642";"91 Kensington Drive";"Lancaster";"PA";"17605";"United States"
"bcb2176b-dd36-435a-9241-4c000305c4f7";"5930 Linden Alley";"Racine";"WI";"53405";"United States"
"bccb4f45-a3ac-4b0a-98c5-8c51e2938977";"102 Macpherson Trail";"Ocala";"FL";"34479";"United States"
"bce9d8a6-6020-4d12-a36d-5b11d207e882";"42 Schiller Court";"Wichita";"KS";"67236";"United States"
"bd14b9a8-5791-4020-8cb7-8821b238061f";"94748 Myrtle Point";"Detroit";"MI";"48206";"United States"
"bd1d8bd1-1c3a-483d-a14f-4fdbf11d8a37";"55192 Pennsylvania Point";"Houston";"TX";"77085";"United States"
"bd3cc864-9848-4c86-89ec-a59f8aad7829";"6 Sutteridge Pass";"Laurel";"MD";"20709";"United States"
"bd6b4f71-75b0-451b-a1f1-80ac8d2554db";"701 Tony Circle";"Milwaukee";"WI";"53220";"United States"
"bdad0163-5024-4770-85ed-82da62bcafdd";"025 Badeau Alley";"San Rafael";"CA";"94913";"United States"
"bdbbd7b6-3cdd-4455-8ef7-42db9a074c50";"8056 Tony Court";"Lawrenceville";"GA";"30245";"United States"
"bdbe0f9a-a88a-4cfd-8241-a546f50b1f46";"61326 Nevada Court";"Garland";"TX";"75049";"United States"
"bdbf0dc2-68b5-4bc4-bc85-0d4900ce6d60";"2560 Dapin Road";"Reading";"PA";"19610";"United States"
"be5c6665-142c-413f-b8f7-52fcd4f0ead7";"67 Basil Way";"Cincinnati";"OH";"45218";"United States"
"be61bf42-43bf-408a-aab8-f652cfada564";"051 Onsgard Place";"Springfield";"VA";"22156";"United States"
"be6963d1-54a7-4df2-9a09-fd78c2cd0950";"7101 Prentice Street";"Melbourne";"FL";"32941";"United States"
"be768015-106e-4a0e-9a2b-eca08e59fc3c";"74 Holmberg Parkway";"Jacksonville";"FL";"32244";"United States"
"be87180e-1ed9-4230-82de-1ad9f6fdf040";"44510 Banding Crossing";"Ocala";"FL";"34479";"United States"
"be8ff3d1-48de-4150-af9f-f7bf86d45b2d";"5 Basil Junction";"Phoenix";"AZ";"85030";"United States"
"bea49904-87ba-4c61-bb6a-6a0d665efecc";"9611 Burrows Park";"Saint Petersburg";"FL";"33715";"United States"
"beb1600d-44b1-44c7-98dd-92a62185166c";"24 Dennis Place";"Indianapolis";"IN";"46278";"United States"
"bef01b56-5b74-48cf-b2fb-d8d661b8cf2d";"5 Atwood Pass";"Columbia";"SC";"29220";"United States"
"bf58aa78-d742-4a14-a471-44e6f515cf5b";"7 Nobel Lane";"Austin";"TX";"78769";"United States"
"bf963ac1-ea4c-4718-85bf-3cb7906add40";"27938 Sage Terrace";"Van Nuys";"CA";"91499";"United States"
"bf9d00bd-a28e-4b68-aea1-191579cf69bf";"88 Hoepker Avenue";"New York City";"NY";"10270";"United States"
"bff8acc9-d039-4c3f-b49e-c6977e94fc3a";"67 Dennis Way";"Louisville";"KY";"40280";"United States"
"c00148a5-dbce-41ce-88c1-6143deb1e548";"235 Shoshone Road";"Richmond";"CA";"94807";"United States"
"c069f40b-6d84-49d3-8f05-16b48721515e";"1 Maryland Street";"Saint Augustine";"FL";"32092";"United States"
"c09fe5d1-a01f-450a-b8a1-aa13e7f0d6fa";"088 High Crossing Road";"Las Vegas";"NV";"89130";"United States"
"c0cd292e-a42a-42dd-9344-d6070c4e92e6";"650 Declaration Lane";"Lansing";"MI";"48930";"United States"
"c0deff16-1dda-4f06-bb42-83ae3d730a13";"35708 Ohio Point";"Apache Junction";"AZ";"85219";"United States"
"c1032bee-a194-4dde-a3f4-57b76587c5b5";"1 Stephen Point";"Wilmington";"NC";"28405";"United States"
"c138b5ae-0a29-456a-9812-a66202030a81";"27441 7th Street";"Washington";"DC";"20310";"United States"
"c15eaf1b-c250-40c6-b2bb-560e42c910dd";"7 Ohio Pass";"North Little Rock";"AR";"72118";"United States"
"c1798f58-40c3-4c13-92e5-357a852abad4";"48 Crownhardt Place";"San Jose";"CA";"95123";"United States"
"c18f55a9-a118-4299-84e1-b4a1b1707f81";"75281 Dapin Park";"Miami Beach";"FL";"33141";"United States"
"c1a4ef12-0587-480a-ab50-a4ebded3eebe";"51 Colorado Park";"Durham";"NC";"27705";"United States"
"c1aa3c78-cee9-459f-9f17-7bdc709f9e8f";"745 Service Junction";"El Paso";"TX";"79999";"United States"
"c1f8e3cb-7aaf-4ce7-99a0-b43fbc109d05";"606 Hoepker Drive";"Portland";"OR";"97201";"United States"
"c2009326-1d41-4896-9499-031204dd18d6";"7719 Laurel Avenue";"West Palm Beach";"FL";"33405";"United States"
"c23ce0df-ba47-440f-a2fb-0add79f66302";"02202 Lien Junction";"Saint Paul";"MN";"55166";"United States"
"c26a9341-3986-4cc1-bd61-59a3fa809bd6";"4939 Tennessee Hill";"Seattle";"WA";"98115";"United States"
"c26d113e-f6a0-4ae9-9564-9eaa1696c827";"7 Kenwood Park";"Boston";"MA";"2114";"United States"
"c303b7c9-edd0-4e28-b836-c4f905786f0c";"44 Petterle Plaza";"Dallas";"TX";"75358";"United States"
"c30e1d5e-e6be-41f2-96ac-95bb5ad92018";"7658 Sheridan Park";"Albany";"GA";"31704";"United States"
"c32bb22e-92ee-488b-b1d1-1594330536ef";"642 Arrowood Trail";"Olympia";"WA";"98506";"United States"
"c3645532-c41b-4fdc-a361-ded6934a74cc";"367 Wayridge Road";"Charlotte";"NC";"28210";"United States"
"c3c9a78f-d95e-4a26-9b89-972fa6399c98";"1942 Oriole Road";"Honolulu";"HI";"96805";"United States"
"c406fdba-0e77-418a-b175-67307a693795";"4 Northland Lane";"Bloomington";"IN";"47405";"United States"
"c41519df-672b-401d-9316-92845afaf466";"94132 Cherokee Street";"Saint Louis";"MO";"63143";"United States"
"c44885aa-0799-401d-b966-530ed23138cd";"5674 Moulton Hill";"Shreveport";"LA";"71151";"United States"
"c4577e99-4000-4ea3-a80f-f19677e8171c";"0 Jenifer Crossing";"Albany";"NY";"12210";"United States"
"c47b39b4-e949-4360-ac7f-9d96f162f07d";"6922 Pennsylvania Circle";"South Bend";"IN";"46699";"United States"
"c4d7e50a-3036-49a0-8470-73d27f514718";"9543 Ruskin Court";"Miami";"FL";"33158";"United States"
"c510246c-20f7-4b4d-a76d-c55c27e0db39";"9 Buhler Alley";"Atlanta";"GA";"30328";"United States"
"c537df03-e2c3-4964-aec0-d55452fc89e5";"13 Ramsey Parkway";"Jeffersonville";"IN";"47134";"United States"
"c54fab75-e4bb-4968-a49c-6a9860049428";"245 Ludington Center";"Staten Island";"NY";"10305";"United States"
"c5689b8e-0818-46c9-9b18-c261c4985624";"20996 Springview Trail";"Asheville";"NC";"28805";"United States"
"c57870cb-0b19-46e2-93db-20c68d2c2f1e";"643 Shopko Alley";"Tyler";"TX";"75705";"United States"
"c59676bc-62be-40ae-a861-e508ebceb53c";"5 Stone Corner Trail";"Johnson City";"TN";"37605";"United States"
"c59fa684-a794-434c-b8a7-828ffa6a4d4c";"9165 Donald Alley";"Escondido";"CA";"92030";"United States"
"c5d613bb-99e8-44ca-a418-5b3e5d5376be";"5 Marquette Place";"Memphis";"TN";"38126";"United States"
"c5d8c8c0-a38c-4743-b85c-3b98812f19c5";"43451 Dwight Alley";"Milwaukee";"WI";"53225";"United States"
"c5da3cd7-2da4-482c-9065-7b9bba454942";"7 Warner Terrace";"Washington";"DC";"20078";"United States"
"c60f858d-c76b-4f4f-9534-5e77023f1da6";"321 Northwestern Junction";"Oklahoma City";"OK";"73190";"United States"
"c6475b3e-aafb-4c10-aac8-cc804cb6ca44";"87845 Loftsgordon Way";"Des Moines";"IA";"50320";"United States"
"c6683b72-5bd6-4e2c-806b-49069b8a1a77";"76072 Express Road";"Santa Fe";"NM";"87505";"United States"
"c67dc366-9864-4e6e-a158-01173e4fecf7";"66190 Chive Parkway";"Raleigh";"NC";"27658";"United States"
"c6d6bd11-fddd-4728-9048-265b2a3cea0a";"2 Gateway Center";"Shawnee Mission";"KS";"66276";"United States"
"c70631ff-bb80-4fff-8ead-940320524f51";"811 5th Hill";"Las Cruces";"NM";"88006";"United States"
"c74b4138-4da4-4d3f-8874-86c32d5e0f63";"649 Badeau Parkway";"Las Vegas";"NV";"89160";"United States"
"c75c3774-fcd9-48b2-ad15-099b8e9cd7dc";"532 Buena Vista Center";"Albany";"NY";"12255";"United States"
"c7825396-7a63-4084-970b-c2fb4b6e0c10";"0 Vidon Point";"Omaha";"NE";"68117";"United States"
"c7878dad-c47b-4b36-a3a1-ab249dff1633";"63 Northridge Park";"Washington";"DC";"20546";"United States"
"c791a19d-25c7-4f94-a0f2-fdd021b6119c";"0573 Talmadge Junction";"Lexington";"KY";"40510";"United States"
"c7b0da6b-b3db-49c5-9cac-5686a4a55e6a";"6367 Graceland Drive";"Lynchburg";"VA";"24515";"United States"
"c84eb2f3-182a-4a63-94df-f7b14b38e092";"8027 Barby Place";"Chandler";"AZ";"85246";"United States"
"c86b5b51-f56d-478c-a900-84449fbcf207";"6765 Erie Street";"Allentown";"PA";"18105";"United States"
"c898fd6f-ac1a-47ca-8460-d7ae5b8a4e77";"2 Dottie Parkway";"Louisville";"KY";"40266";"United States"
"c8bf4276-b946-45c8-be2e-507e1f849455";"16 Kennedy Avenue";"Seattle";"WA";"98148";"United States"
"c8d06876-c547-480f-b0fe-3de8d5c8a10e";"566 Debs Drive";"Hampton";"VA";"23663";"United States"
"c8ed3a77-e116-4b3c-9e85-4cc89036869d";"7 Manufacturers Hill";"Houston";"TX";"77070";"United States"
"c8efec3e-2b38-4dfe-96a9-9127e5d4db1d";"71 Harbort Street";"Savannah";"GA";"31416";"United States"
"c909651f-5b72-4ccb-943d-64a0ea80da16";"8086 Mayfield Pass";"Chico";"CA";"95973";"United States"
"c9a9e8c9-2de7-4f3e-8a29-d7533fc69003";"4541 North Hill";"Schenectady";"NY";"12305";"United States"
"c9b1e31d-88db-49df-a04a-2bc518011c51";"69025 Kropf Drive";"Palmdale";"CA";"93591";"United States"
"ca11e648-1a36-4a4f-bc53-01b9528cb680";"19122 Lawn Road";"El Paso";"TX";"79950";"United States"
"ca49f64b-fe80-4c97-8360-89f24d4114ff";"4 Summerview Point";"Las Vegas";"NV";"89105";"United States"
"ca6b816b-0746-46de-9904-b898bc5db12c";"460 Sundown Junction";"Springfield";"IL";"62711";"United States"
"ca6d5699-33e9-46a3-968f-f07d4e84ac4f";"2331 La Follette Lane";"Kansas City";"MO";"64136";"United States"
"cacff6b9-571c-42fd-ac4d-33798974a566";"82 Kenwood Trail";"Austin";"TX";"78754";"United States"
"cad4037a-09d3-43dc-a931-6d19da547b51";"8 Porter Street";"Little Rock";"AR";"72204";"United States"
"cb357b34-a3a9-46ef-a49e-35ad5abf3080";"88 Weeping Birch Road";"High Point";"NC";"27264";"United States"
"cbf3593a-91e6-47c8-9e4d-3739097b22c6";"329 Ramsey Trail";"Tacoma";"WA";"98464";"United States"
"cc0f49c0-0f7e-4e0e-8c32-828239e096d8";"167 Artisan Parkway";"Albuquerque";"NM";"87105";"United States"
"cc70126c-c3c6-4ee0-8b65-15eba0585e8d";"84 Ohio Court";"Pittsburgh";"PA";"15274";"United States"
"cc723a10-540b-4f0b-8c9c-de32b29da7dc";"245 7th Street";"Burbank";"CA";"91505";"United States"
"cc8eb356-a75a-4276-81d3-6e1651eae4c3";"2 Moose Way";"New York City";"NY";"10155";"United States"
"cca823a2-3586-4061-a917-98e0d66e2ae0";"699 Debra Park";"Schenectady";"NY";"12325";"United States"
"ccf988af-76a6-4b3b-a970-8e650cd37ea1";"973 Bluejay Alley";"San Diego";"CA";"92127";"United States"
"cd10090d-d605-4a4f-b3df-7dda13d1f2be";"94998 Mccormick Trail";"Saint Paul";"MN";"55127";"United States"
"cd38fc41-22dd-4e28-a30c-6b8a90c84f47";"29 Clove Street";"Lexington";"KY";"40596";"United States"
"cd63ff45-51ad-4d86-90a4-cd8691b73842";"9849 Prairie Rose Park";"Gainesville";"FL";"32605";"United States"
"cd669ee8-9a4c-4c51-a8b4-98662cfbc713";"4760 Leroy Road";"Dallas";"TX";"75323";"United States"
"cdc25830-2d86-4b0f-9431-9d14b12eb13d";"456 Elm St";"Springfield";"IL";"62702";"USA"
"cde7e4af-c081-459a-a6a8-f07e97fb6cac";"352 Scott Junction";"Las Vegas";"NV";"89155";"United States"
"ce05cdbf-ff67-4822-a775-17b1f31e9e45";"43358 Grasskamp Street";"Saint Paul";"MN";"55123";"United States"
"ce210bf9-ee8a-48a8-80d2-43e3fe40b8b2";"430 Mallory Pass";"San Jose";"CA";"95194";"United States"
"ce4ab152-2114-43a1-9fa6-05436f2978ed";"088 Jenifer Point";"New York City";"NY";"10045";"United States"
"ce6ba2ab-7fa4-40a1-831b-ee3b83c89b82";"587 Heath Street";"Glendale";"CA";"91210";"United States"
"cec80b28-68dc-4da2-845b-90ca4411797a";"5 Myrtle Junction";"Wichita";"KS";"67210";"United States"
"cf2b72ed-1ecd-4e62-ae95-5209bca17d5b";"8048 Bowman Hill";"Wichita";"KS";"67210";"United States"
"cf2d8514-ab7a-4275-8605-542281fdd302";"85 Goodland Trail";"Bethlehem";"PA";"18018";"United States"
"cf3151f6-96bd-464f-a44f-24ba45254ebe";"56264 Eggendart Avenue";"San Diego";"CA";"92110";"United States"
"cf3b3180-f143-414a-9ab6-d8fc6ddb14eb";"776 Esch Pass";"Augusta";"GA";"30919";"United States"
"cf4a9cd3-5f4f-47ec-a3d5-4f17b6f10200";"25 Lakewood Alley";"Huntsville";"AL";"35895";"United States"
"cf5539f0-917f-483a-b51d-070bf2439856";"84928 Drewry Court";"Rochester";"NY";"14652";"United States"
"cf720a18-c2fd-4f24-8109-5afd783050b5";"25 Macpherson Hill";"Tucson";"AZ";"85737";"United States"
"cf749649-6275-4378-8907-860776c881bf";"19 Brickson Park Park";"Jamaica";"NY";"11407";"United States"
"cf8c3856-bc31-45b8-9157-fa5ac31bae9e";"535 Buell Pass";"Grand Junction";"CO";"81505";"United States"
"cfad59c4-8316-4ac7-ba9f-65844f154ee7";"26 Harbort Pass";"Indianapolis";"IN";"46295";"United States"
"cfe2f08f-f179-4e78-a46a-f8f32800a4db";"50 Lighthouse Bay Drive";"Sacramento";"CA";"94207";"United States"
"d09d60ad-0058-451b-bc3e-135d0cef4400";"10896 Ridge Oak Parkway";"Canton";"OH";"44710";"United States"
"d0c4b897-ac6f-4384-a94a-317562742ca9";"172 Badeau Park";"Grand Forks";"ND";"58207";"United States"
"d0df0405-cb17-4ce4-a6a9-faba21d7ea88";"44473 Rusk Plaza";"Pittsburgh";"PA";"15266";"United States"
"d0e5aab3-6cba-407f-b39c-009fc5dd2188";"68 Sundown Avenue";"Aurora";"IL";"60505";"United States"
"d12547f2-4d74-4cb9-bf72-d80a6eedffa3";"77874 Manley Court";"Rochester";"MN";"55905";"United States"
"d12cae94-d736-4b59-8594-2822a0f20063";"2733 Hollow Ridge Pass";"Saint Louis";"MO";"63121";"United States"
"d1386b21-16bf-4cfa-b62c-00e8dee1a2ba";"31 Fairview Place";"Erie";"PA";"16522";"United States"
"d1dbecf0-42b1-4197-85f3-5d4ec9ad7554";"08138 Ruskin Lane";"Las Vegas";"NV";"89193";"United States"
"d25b3339-44a5-44f8-b85b-541297f56732";"1 Bobwhite Street";"New Orleans";"LA";"70179";"United States"
"d25ebb98-20b3-4b84-b424-207df4572751";"608 Shasta Circle";"Charlottesville";"VA";"22908";"United States"
"d2d84488-4844-448b-a49e-7f933131d12e";"2 Susan Park";"Fargo";"ND";"58122";"United States"
"d3aee5d1-5f7d-440f-9e7a-e7c6bb0b15a1";"89 Truax Junction";"San Diego";"CA";"92170";"United States"
"d40285df-260b-409f-9c02-167a6a7f40a2";"38117 Logan Drive";"San Francisco";"CA";"94105";"United States"
"d4198f6d-7a3f-4243-b5c4-38b0ee6d99e3";"692 Sauthoff Trail";"Waco";"TX";"76796";"United States"
"d434a78b-b804-4041-a3c4-c7d6d217c205";"98146 Messerschmidt Plaza";"Madison";"WI";"53726";"United States"
"d44c42ad-b20a-47c5-84f8-6c6040831afb";"648 Carioca Center";"Honolulu";"HI";"96840";"United States"
"d469aa9d-638a-4cd7-9130-f412a3b32a8b";"952 Stoughton Plaza";"Lubbock";"TX";"79491";"United States"
"d48523c6-abd1-4b68-b9c8-d1b4807620a4";"3 Loeprich Court";"San Antonio";"TX";"78285";"United States"
"d4cc413a-f7c9-42c0-b23c-5eeac0246c12";"8260 Dennis Plaza";"Virginia Beach";"VA";"23459";"United States"
"d4e2eadb-e75c-4f9a-8662-146316287948";"372 Coolidge Road";"Charlotte";"NC";"28210";"United States"
"d4e32561-cf41-4e2d-b53b-62407e50e236";"0 Granby Hill";"Denver";"CO";"80279";"United States"
"d4ea80c5-27d0-4ab7-b1fd-1d325d43c487";"2650 Morning Circle";"Boise";"ID";"83727";"United States"
"d5b34469-5544-40d4-b023-29e617732edc";"41262 Thackeray Hill";"Boynton Beach";"FL";"33436";"United States"
"d5d02fc7-40de-4c69-98b1-cdb80257a6ba";"89 Sundown Point";"Amarillo";"TX";"79171";"United States"
"d619181d-5af7-4493-9f83-37e5a15ed57b";"20141 Hoard Terrace";"Omaha";"NE";"68117";"United States"
"d684df99-dc19-49ff-b3eb-5f4f748000a5";"38999 Morningstar Drive";"Lansing";"MI";"48919";"United States"
"d7190a4e-6d1d-4243-b1a4-4a38d6c67d4a";"4019 School Avenue";"Abilene";"TX";"79605";"United States"
"d7233ba0-93d6-4234-9c30-1aedebc66eb8";"6342 Thompson Point";"Mesquite";"TX";"75185";"United States"
"d73b35d2-1269-4b80-8346-75d5e4f7124b";"08640 Anderson Junction";"Clearwater";"FL";"34615";"United States"
"d73fc9e7-431d-44b6-b87d-4ef9d73e3f43";"1095 Paget Plaza";"Alexandria";"LA";"71307";"United States"
"d7622b1a-f2a0-41dc-8d42-62d5939728b2";"662 Schlimgen Center";"San Francisco";"CA";"94105";"United States"
"d77a9f99-d950-4e22-82c5-1e1fe985e629";"87 Green Ridge Circle";"Phoenix";"AZ";"85010";"United States"
"d7b6d128-336a-48c4-a8db-44d0dc70dd7e";"6969 Kim Junction";"Lansing";"MI";"48912";"United States"
"d7e32b1c-caee-44fa-a171-4748d57d4ff7";"62553 Maywood Junction";"New York City";"NY";"10270";"United States"
"d80375ea-6f92-45f7-930f-f283826bbc4b";"22774 Hallows Alley";"Chicago";"IL";"60686";"United States"
"d80beee1-1432-47b6-a57b-0ff1793eed0b";"6599 Gulseth Court";"Dallas";"TX";"75387";"United States"
"d816421c-0ef9-4de5-b366-d7ee0aced83e";"24570 Jenifer Point";"Saint Cloud";"MN";"56372";"United States"
"d828361a-7579-4c7f-a560-202b861ace3f";"3 Main Pass";"Fresno";"CA";"93762";"United States"
"d8a16df6-dd70-4a0c-9479-5b586dd185a4";"425 La Follette Point";"Boulder";"CO";"80328";"United States"
"d8afb385-4251-40cd-84a9-a0d173cf4fe0";"4711 Derek Park";"El Paso";"TX";"88553";"United States"
"d8e5c366-d7d3-42ac-8f0a-ac16f7a66a97";"883 Ruskin Park";"Phoenix";"AZ";"85067";"United States"
"d8ecf4b3-9bd2-4e64-b11b-3aeca5a36cab";"7788 Hudson Lane";"Tacoma";"WA";"98405";"United States"
"d938f033-7871-4b35-a02d-573272e4230a";"98127 Hovde Place";"Miami";"FL";"33233";"United States"
"d960c452-93d8-41e7-a476-70f3a761baeb";"9 Fremont Court";"Saginaw";"MI";"48604";"United States"
"d964fa1e-e2bf-4103-9726-82e9e0a5941a";"0128 Ryan Point";"Corona";"CA";"92883";"United States"
"d980a223-7ddf-49e2-94f1-2d7f7ced3cfa";"4216 Waubesa Point";"Atlanta";"GA";"30328";"United States"
"d9bb7c31-cb80-40a2-85d4-f9df59ed6111";"90 Declaration Crossing";"Norwalk";"CT";"6854";"United States"
"d9cfc50b-1f5b-42a1-9796-6d3a897da00c";"03053 Mosinee Street";"Mobile";"AL";"36605";"United States"
"d9ef3042-aff9-4df6-af68-78181f7577b6";"32 Homewood Alley";"Orlando";"FL";"32825";"United States"
"d9f54278-ab84-4a10-8677-296cf72bc42f";"77598 Warner Park";"Columbia";"MO";"65211";"United States"
"daa3896e-dc50-41cf-b567-ad3ce4018092";"139 Mayfield Place";"Washington";"DC";"20067";"United States"
"daa6d3c2-1f35-4779-a48a-36bbdac39928";"93 Stone Corner Court";"Arlington";"VA";"22205";"United States"
"daae8f25-ca84-4b2c-8b57-1a02bdb0a62e";"22926 Springs Terrace";"Brooklyn";"NY";"11205";"United States"
"dae07870-57df-48cd-9724-cca74f102a65";"0358 Eastwood Alley";"Houston";"TX";"77065";"United States"
"db480f8b-3f92-47f7-94e1-8585b7bea1f5";"512 7th Plaza";"New York City";"NY";"10170";"United States"
"db6f37b0-14b9-42e3-b9d8-8f1bdfb5e218";"3627 Hermina Trail";"Washington";"DC";"20530";"United States"
"dbd4229c-56fd-489b-aea6-2d44060f089f";"338 Namekagon Parkway";"Durham";"NC";"27705";"United States"
"dc142d76-0536-4e1f-80db-95becb3adbd5";"6851 Eastlawn Hill";"Duluth";"GA";"30096";"United States"
"dc25ea27-de1c-4ea1-9193-bf40c56d217f";"552 Corscot Street";"Louisville";"KY";"40280";"United States"
"dc3482f9-f4d4-45de-b02a-2c4713b1d3dc";"04333 Sunfield Parkway";"Tacoma";"WA";"98405";"United States"
"dc4a0381-926d-4197-8a30-869e088e6c0e";"2 Eastlawn Lane";"Cincinnati";"OH";"45243";"USA"
"dc936f1d-959c-4576-8383-b02e31edbccb";"268 Merchant Terrace";"Las Vegas";"NV";"89178";"United States"
"dce292f9-6e9c-4f7e-b0ce-b3af62b47a77";"32976 Bartillon Lane";"Minneapolis";"MN";"55448";"United States"
"dcfdf6e9-b814-44df-9a1e-8dae438bd2d8";"817 Declaration Park";"Saint Louis";"MO";"63131";"United States"
"dd0b4c6b-bc38-41dd-89f5-39bbea8c6c32";"6472 Fuller Place";"Olympia";"WA";"98516";"United States"
"dd826f65-74b3-43f2-a5a1-6d3326df925d";"2 Buena Vista Point";"Atlanta";"GA";"31106";"United States"
"dda667a5-030e-4347-a3ec-a655ff0edf02";"65 Burning Wood Trail";"Columbus";"GA";"31914";"United States"
"ddea6f94-50fc-4f61-b222-8c60025d5972";"5 Oxford Drive";"Louisville";"KY";"40225";"United States"
"ddefea88-312e-4c2c-89db-cd388d3590b4";"052 Monterey Circle";"Brooklyn";"NY";"11205";"United States"
"de208898-468f-468e-bd06-1829b0e9e56a";"4 Lighthouse Bay Lane";"Charlotte";"NC";"28263";"United States"
"de211776-4ccd-4458-a5ce-ee2e311a9c96";"8019 Bellgrove Court";"Amarillo";"TX";"79176";"United States"
"de71f9d3-7264-4592-bd57-50bf155ade60";"5343 Mallory Place";"Dallas";"TX";"75342";"United States"
"de834ee7-28e8-4f34-8137-e20fcdac91a5";"9 Anniversary Lane";"Nashville";"TN";"37245";"United States"
"de9af86d-0dfb-4365-9cff-300ca5c6b8d8";"2 Schurz Crossing";"Pinellas Park";"FL";"34665";"United States"
"de9ff45f-c8bb-4d8b-9905-dc68fcb6177f";"0646 Gina Court";"Birmingham";"AL";"35290";"United States"
"deaf9052-6408-47db-9ae2-2e960ef5d4f8";"52 Bayside Way";"Saint Joseph";"MO";"64504";"United States"
"df9811ef-9f92-4da4-8c57-ce093d0f045c";"546 Golden Leaf Trail";"Grand Rapids";"MI";"49505";"United States"
"df99452f-9883-4617-add0-257c4a2157a9";"140 Muir Junction";"Columbus";"OH";"43210";"United States"
"dfd0884b-e4ac-4937-8418-1752b67e29f1";"3066 Upham Lane";"San Francisco";"CA";"94121";"United States"
"e05dbb81-26b6-4635-bae3-06a63f145625";"06 Northport Center";"Des Moines";"IA";"50347";"United States"
"e0d037bb-e005-4b5b-96c4-8d291f1b1ad8";"4 Waxwing Terrace";"Madison";"WI";"53716";"United States"
"e104cfa1-8a1b-462b-a930-e237a3a567e4";"3 Linden Center";"Corona";"CA";"92883";"United States"
"e13bbabf-ab35-426c-b190-24f7c6260897";"97167 Glacier Hill Hill";"Tacoma";"WA";"98464";"United States"
"e14919ff-7575-4eae-89cc-df4d99da2de0";"61011 Nobel Parkway";"Carson City";"NV";"89706";"United States"
"e15bd9df-4f59-4404-b7db-0f32ac46081b";"2220 Beilfuss Street";"Chicago";"IL";"60663";"United States"
"e15dadc0-b9aa-4eea-90f8-b98c7684801d";"3267 Dahle Court";"Tyler";"TX";"75710";"United States"
"e18de374-5437-4c39-a43e-e7d31b4e7a5b";"8741 Mandrake Hill";"Norcross";"GA";"30092";"United States"
"e1fd0240-d65f-4ee9-9f7d-8fc4e3e66ac5";"78 Crowley Pass";"Maple Plain";"MN";"55572";"United States"
"e23c1aaa-e0ed-4d4e-bfc1-19e82cc804ea";"513 Butternut Point";"Little Rock";"AR";"72209";"United States"
"e2571fe5-e486-4622-a17e-a38f56b22431";"29669 Londonderry Court";"Savannah";"GA";"31410";"United States"
"e2700973-8d08-4458-abd5-b10b31594449";"2253 Kim Place";"New York City";"NY";"10184";"United States"
"e2c27a0f-8e39-41e0-a809-b9ec5b98c8b8";"773 Vidon Hill";"Tacoma";"WA";"98442";"United States"
"e2ddee3c-1104-4cdf-b12d-982f2c9c7c91";"0642 Buhler Pass";"Jamaica";"NY";"11499";"United States"
"e2f10a14-89f6-4537-990c-e35bf6a4c7a9";"62 Riverside Place";"Schenectady";"NY";"12305";"United States"
"e312ab03-54d0-4a61-b6f8-7b2f0b3e086b";"099 Tony Crossing";"Shreveport";"LA";"71105";"United States"
"e3bbdcfd-9523-4824-9455-dbcff891362b";"23420 Eagan Crossing";"Washington";"DC";"56944";"United States"
"e3c97091-b56e-4c96-bacd-0be4c0ee6e74";"0935 Mallory Street";"Tulsa";"OK";"74133";"United States"
"e43c4f18-cd52-41e0-9a13-0947e1537bd1";"88612 Talmadge Street";"Baltimore";"MD";"21229";"United States"
"e43ca03a-cb77-49d2-b7d4-3edecbb36e95";"92 Union Hill";"Charleston";"SC";"29411";"United States"
"e44fc158-8816-4b3e-8862-aba9bf1f975f";"620 Grim Trail";"Grand Rapids";"MI";"49510";"United States"
"e4674d2d-b525-4b4e-b8d5-1297800205e1";"916 Fuller Park";"Oklahoma City";"OK";"73190";"United States"
"e48fa924-3b22-4495-b733-2ddadf46694e";"4 Johnson Pass";"Knoxville";"TN";"37995";"United States"
"e4b14d12-91a0-4bad-b5f6-d8b08219de1a";"98343 Tennyson Court";"Kalamazoo";"MI";"49048";"United States"
"e4e1b9e2-59aa-4eb5-84a3-027344cb54c9";"7 Buena Vista Pass";"Columbus";"OH";"43240";"United States"
"e5453ea9-6a1e-475d-8761-c9da773277d8";"34794 Service Circle";"Boise";"ID";"83722";"United States"
"e59237ac-262b-46bc-8ad7-81398959356e";"138 Rieder Trail";"Kansas City";"MO";"64125";"United States"
"e626ed89-c865-4171-8903-4fef94efb06d";"1281 Magdeline Place";"Oklahoma City";"OK";"73173";"United States"
"e62932bb-0414-44b3-904d-7198f8b0b2fb";"0 Fallview Court";"Houston";"TX";"77095";"United States"
"e63c45b0-f09b-4719-aac1-827e4fe2a05c";"462 Orin Crossing";"Littleton";"CO";"80126";"United States"
"e63c9333-afd8-4433-931e-e2b0c82229f0";"0683 Dixon Way";"Louisville";"KY";"40287";"United States"
"e6575b8f-fb71-4798-9a60-438f379a4b42";"685 Del Sol Point";"Santa Rosa";"CA";"95405";"United States"
"e66c60de-2e68-432f-89db-6ea47fac74e5";"743 Milwaukee Terrace";"Austin";"TX";"78769";"United States"
"e68de6d8-e6cb-4a61-8b22-fb2e8be95236";"82136 Thackeray Street";"Phoenix";"AZ";"85099";"United States"
"e6b0047e-d121-48e5-a986-b5f3c0241665";"66 Lakewood Gardens Lane";"Hyattsville";"MD";"20784";"United States"
"e6bb5483-ecdf-4c07-8a02-27c9ad2cce10";"8424 Dawn Center";"Dallas";"TX";"75216";"United States"
"e754411b-5d43-4447-a5d7-376596d51c57";"4909 Old Shore Lane";"Des Moines";"IA";"50981";"United States"
"e7af81db-8b07-4e41-ae75-595f330ba02e";"10036 Grover Terrace";"Tampa";"FL";"33647";"United States"
"e7ca5cc8-fe7e-4c10-8836-d83f37fe3963";"783 Hanson Crossing";"Tampa";"FL";"33680";"United States"
"e8696a2b-4586-4dee-bfb6-202239c7e729";"5885 Lotheville Alley";"Midland";"MI";"48670";"United States"
"e8b507dc-8dbf-4190-908e-ea491c127ac5";"2 Di Loreto Park";"Des Moines";"IA";"50320";"United States"
"e8db917d-d4a8-4d45-a6a5-2b4aeb4f9a6f";"11197 Claremont Lane";"Kansas City";"MO";"64160";"United States"
"e8feff7d-645c-4cf4-ade5-897265f0baae";"5 Dixon Avenue";"Jacksonville";"FL";"32244";"United States"
"e956334b-f2b5-40a6-9941-66e077202758";"98 Sunfield Circle";"Orlando";"FL";"32819";"United States"
"e95e6746-6215-4032-a5eb-2cfd9065097d";"65 Morning Pass";"Columbus";"OH";"43240";"United States"
"e9782813-836d-47a9-8791-60fee1522801";"5212 La Follette Way";"Burbank";"CA";"91505";"United States"
"e988212c-1124-464f-a7ff-95e5401aeee7";"9997 Mayfield Trail";"Huntington";"WV";"25709";"United States"
"e9aba5f8-1805-4a14-b200-92020502c7c1";"85228 Messerschmidt Center";"Reno";"NV";"89595";"United States"
"e9f4e0ce-4f30-4fe7-a172-3bc72f8412e3";"8725 Jenna Road";"Staten Island";"NY";"10310";"United States"
"e9fabdaf-5baf-4287-9927-bfe499838940";"91 Sunnyside Trail";"Las Vegas";"NV";"89178";"United States"
"e9fcbdb6-bc68-40a8-86e5-b9b637d418a8";"984 Farmco Avenue";"Grand Rapids";"MI";"49518";"United States"
"ea4b574d-19c0-4901-a092-45a19ea3cba6";"310 Katie Court";"Los Angeles";"CA";"90094";"United States"
"ea881668-911b-428c-8b0b-2f214ebffc29";"12928 Fairview Way";"Shawnee Mission";"KS";"66276";"United States"
"eaaff7f3-7f29-4125-83ce-09e7e7284b75";"87630 Melody Crossing";"Murfreesboro";"TN";"37131";"United States"
"eac12075-297d-408b-a91f-1179f54f9ce6";"9880 Fuller Place";"Wilmington";"DE";"19892";"United States"
"eb08edd7-7925-44dc-a401-4b52e7a37718";"2 Dakota Alley";"Phoenix";"AZ";"85067";"United States"
"eb44aa31-5937-4d3c-84e3-2ba6b815013a";"1451 Armistice Hill";"Denton";"TX";"76205";"United States"
"eb5ea25c-5da9-492f-988c-b4186080ebbe";"2607 Scoville Court";"Memphis";"TN";"38197";"United States"
"eb733a8c-3b5d-4d6c-aa38-86451a97676b";"3 Columbus Court";"Sacramento";"CA";"94273";"United States"
"eb86c209-d2be-4bed-8182-5853c0e3d2a0";"15 Tennessee Alley";"Fort Worth";"TX";"76178";"United States"
"ebafcf0d-bd4d-4328-9b54-65a856d7395f";"4082 Fairfield Point";"Fort Lauderdale";"FL";"33330";"United States"
"ebd9f80b-620a-40be-b888-3eb1ed6fee9b";"72 Barby Court";"Washington";"DC";"20244";"United States"
"ebdcf941-7bac-42cc-9fcc-79871192a2e5";"019 Hagan Alley";"Pensacola";"FL";"32590";"United States"
"ec445c7c-16f6-4848-b424-ee9443d6aad8";"924 Ridge Oak Parkway";"Tampa";"FL";"33686";"United States"
"ecba4c71-29a2-4594-a7e7-09274b9bfaa0";"62 Grasskamp Terrace";"Paterson";"NJ";"7522";"United States"
"ed631b95-9378-49dc-be48-ed764c1fe510";"0430 Karstens Street";"Plano";"TX";"75074";"United States"
"ed8d12cb-2bb8-43ec-bfa6-75caeeeea3ba";"0911 Prairie Rose Plaza";"Winston Salem";"NC";"27150";"United States"
"edde0297-3cc9-4979-b9f1-6acb05bd591e";"195 Northfield Way";"Portland";"OR";"97240";"United States"
"ede82be6-e32e-4864-82b9-258a16784ee4";"5 Wayridge Court";"Des Moines";"IA";"50320";"United States"
"ee3299a9-42d6-4fb0-8d68-975a8ae00b00";"46 Katie Street";"Warren";"OH";"44485";"United States"
"ee44868d-6483-411f-a344-6c96a1c58242";"8 Harbort Avenue";"Dallas";"TX";"75236";"United States"
"ee5ff802-ced2-4aa3-9874-57465477d6ca";"2212 Spohn Junction";"Evansville";"IN";"47747";"United States"
"eea4cffc-3637-4d81-94a8-9ff3ed297e04";"6 Norway Maple Lane";"Houston";"TX";"77299";"United States"
"eebc4bc7-e68f-40d3-9147-6a132470e54b";"72 Emmet Park";"Rochester";"NY";"14604";"United States"
"ef0d59bd-fcd2-4040-9cac-5334b82ba06a";"281 Longview Road";"Conroe";"TX";"77305";"United States"
"ef48300b-d429-40f9-9d21-5702189fa755";"48475 Grayhawk Park";"Champaign";"IL";"61825";"United States"
"ef751b25-a4f9-4b6b-ad68-193192ad4f7f";"324 Washington Circle";"Las Vegas";"NV";"89110";"United States"
"ef8c070a-6a94-438d-a151-147de679a778";"34 8th Lane";"Honolulu";"HI";"96840";"United States"
"f0224a86-7ef4-454f-9865-dd0da27f31e1";"52 Ramsey Way";"Orlando";"FL";"32819";"United States"
"f04279ff-0e2a-4010-b291-37a3b1b3786a";"5679 Crest Line Street";"South Bend";"IN";"46620";"United States"
"f0842975-dc39-4e9f-ade7-8c1e06563d2f";"55458 Ilene Crossing";"Beaverton";"OR";"97075";"United States"
"f0fef711-0afc-4539-b4a1-8d374b75f52b";"45 Bay Alley";"Charlotte";"NC";"28284";"United States"
"f12ea822-5344-41bb-8cf8-fff434929127";"99542 David Street";"Baltimore";"MD";"21281";"United States"
"f140ae0c-d18d-40f4-82ec-d76e89c5bf48";"365 Old Shore Street";"Kissimmee";"FL";"34745";"United States"
"f175dbd1-6542-47b1-9ca0-5bdc80fac342";"95 Old Shore Crossing";"Charleston";"WV";"25331";"United States"
"f1ced21e-6f3d-4140-96ab-719d16928855";"5560 Katie Way";"Atlanta";"GA";"30392";"United States"
"f1f1cd7c-328a-43ee-ab38-10957d6980ce";"3 Armistice Avenue";"New York City";"NY";"10131";"United States"
"f253f25b-f7a3-40d7-b15b-674fa8d4b995";"0440 Lakeland Pass";"Beaverton";"OR";"97075";"United States"
"f2bfa2a3-9b1d-4a5f-93d6-17f0c32e4a78";"6851 Shelley Drive";"Oklahoma City";"OK";"73124";"United States"
"f319f4d7-75d7-4fd0-a796-14719c30ba7d";"6204 Clove Avenue";"Topeka";"KS";"66622";"United States"
"f32a4c6f-4c11-4bd9-b352-44a574ea1b7a";"21121 American Ash Crossing";"Hagerstown";"MD";"21747";"US"
"f330ff7f-5be3-437d-838c-75aa08f0f866";"3 Elmside Road";"Buffalo";"NY";"14215";"United States"
"f33d6e27-de3d-40a2-b098-e7c4582b687e";"655 Old Shore Lane";"Phoenix";"AZ";"85030";"United States"
"f3720a78-db89-45d3-8ac6-d69d92d0cae8";"92710 Almo Parkway";"Norwalk";"CT";"6854";"United States"
"f3782927-69c3-4ccb-801e-dcdc66a279be";"3527 Roth Trail";"Topeka";"KS";"66611";"United States"
"f3d50af3-9058-44aa-8005-5957b808ca8e";"8048 Bellgrove Street";"Silver Spring";"MD";"20910";"United States"
"f425839c-6877-4051-9064-dfc0189a23eb";"9 Bayside Hill";"Allentown";"PA";"18105";"United States"
"f49ea2c1-75c8-493f-a099-2b437d4141aa";"71847 Meadow Vale Lane";"Boston";"MA";"2298";"United States"
"f4c3e780-6270-47c4-935e-44b327c45caa";"4 Brown Way";"Grand Rapids";"MI";"49544";"United States"
"f5012209-cbcd-4d67-a7c6-f69f52c62604";"86 Aberg Plaza";"Beaverton";"OR";"97075";"United States"
"f56ee94b-fb85-4e73-8535-b72e6365bb1d";"82491 Warbler Parkway";"Philadelphia";"PA";"19136";"United States"
"f5d40521-3a85-43dc-bc95-920da6b32e2f";"9757 Harbort Lane";"Lincoln";"NE";"68517";"United States"
"f5ff8a9d-469e-40e4-85fe-2c1b36c93dd5";"353 Nevada Pass";"Gatesville";"TX";"76598";"United States"
"f60da8c7-4310-4042-803e-d23278b34b4a";"683 Dovetail Place";"Albany";"NY";"12247";"United States"
"f615a027-44aa-4546-be05-e9bd9b1c36ba";"082 Montana Avenue";"Chicago";"IL";"60614";"United States"
"f67a74e8-a20d-49c8-8389-228dd9322cc0";"96387 Upham Parkway";"Paterson";"NJ";"7505";"United States"
"f67d4504-a0e5-465a-a42d-18f0f00a91c1";"73090 1st Drive";"Palmdale";"CA";"93591";"United States"
"f68bd2f3-1658-456e-a5ca-8d4619acdcb0";"1103 Maple Wood Junction";"Minneapolis";"MN";"55480";"United States"
"f69925d4-e08b-48d6-bfb2-1dfb80ec7c5f";"9542 Carey Junction";"New York City";"NY";"10170";"United States"
"f6a5faf1-9c3c-4b96-afb1-bf04fe08264f";"0158 Union Pass";"Allentown";"PA";"18105";"United States"
"f6b18248-7df2-42b1-8bc0-f4b9ac7e9253";"8243 Sutteridge Street";"Saint Louis";"MO";"63104";"United States"
"f6dc5938-86af-494b-b7ff-4cbd5af20dcc";"8817 Sullivan Junction";"Montgomery";"AL";"36109";"United States"
"f725ba2b-867d-4c34-a29a-1cb3cfb9367d";"56 Drewry Plaza";"Toledo";"OH";"43656";"United States"
"f7396965-93a8-4ed3-b0b4-fbd8c49e5ef1";"17109 Morningstar Crossing";"Mansfield";"OH";"44905";"United States"
"f78add24-c541-4145-a013-4ffe55242170";"5 Dunning Avenue";"El Paso";"TX";"79999";"United States"
"f8066cb8-0cf4-4082-8f9d-a9a2b0173acc";"47108 Bluejay Center";"Norfolk";"VA";"23551";"United States"
"f8be93c6-241c-416a-98e2-d62ea6dc30fa";"76857 Continental Center";"Philadelphia";"PA";"19109";"United States"
"f8bf007e-269c-44a9-9f15-df164ee88f68";"63 Dovetail Road";"Mobile";"AL";"36670";"United States"
"f93db770-5d13-470e-a5da-55e595a85827";"62403 Independence Park";"Anniston";"AL";"36205";"United States"
"f9d0ce87-7d6b-43e0-a862-a42c8b26f45c";"423 Prairieview Plaza";"Dallas";"TX";"75265";"United States"
"f9d60289-9a4a-4405-a313-40820fd7abc4";"96 Pankratz Drive";"San Diego";"CA";"92127";"United States"
"fa507615-d587-4189-ba5d-c3d7a8698c0a";"0 Redwing Road";"Gatesville";"TX";"76598";"United States"
"fa90b65d-f1b3-4246-9fd5-d4a9dd3871e8";"04687 Clarendon Park";"Charlotte";"NC";"28299";"United States"
"fab191dd-3be3-4b61-b05a-b19997a67412";"3 Grayhawk Pass";"Decatur";"GA";"30089";"United States"
"fac8f098-d90b-4dbd-8c93-8313386d7eb8";"82199 Kings Point";"Erie";"PA";"16510";"United States"
"fadd2e77-2e75-4eae-97c2-a4fb3838d9bd";"24 Vera Center";"New York City";"NY";"10155";"United States"
"fb13b637-6be9-4d4f-8469-d677a2d40ea0";"51269 Oakridge Drive";"Washington";"DC";"20078";"US"
"fb331d4c-1868-4826-87fc-94817e1e04ef";"6978 Milwaukee Lane";"Sunnyvale";"CA";"94089";"United States"
"fb4ef571-7d8c-4592-bdc3-9f6eae22e571";"47547 Lerdahl Pass";"Clearwater";"FL";"34615";"United States"
"fc5591bd-68e4-4733-ad08-913cb78458a6";"7332 Express Way";"Humble";"TX";"77346";"United States"
"fc9e742a-c032-4ecf-ac15-4d057ec46fa8";"15696 Lawn Way";"Chandler";"AZ";"85246";"United States"
"fcb7fdf0-53f6-4909-baed-532d7c463c8d";"6 Coolidge Junction";"Tampa";"FL";"33615";"United States"
"fcf085a4-8cf1-48a7-84e8-0f99dcb2ef64";"4077 Spenser Park";"Evansville";"IN";"47732";"United States"
"fd743ca1-d46e-4b1d-8d45-6fe596198584";"0716 Blaine Parkway";"Gainesville";"FL";"32605";"United States"
"fda24eb3-878a-414d-8180-4f5f2cf4def8";"75 Northport Lane";"Washington";"DC";"20051";"United States"
"fe878f9e-132e-4d02-b016-ea8827ca8dd4";"276 Saint Paul Crossing";"Springfield";"IL";"62723";"United States"
"fe93f6f7-05d6-442c-bc28-2008b968a0a9";"539 Arrowood Pass";"Dearborn";"MI";"48126";"United States"
"fe9c13d6-b2ac-4c62-97b3-b0cca5ed53be";"4 Grover Lane";"Virginia Beach";"VA";"23459";"United States"
"fe9ef4c0-8a84-4f98-89da-c35a17663c85";"3 Algoma Drive";"Washington";"DC";"20078";"United States"
"fea2dd68-6632-426f-a876-68f9dda8d5e4";"8795 Killdeer Court";"Annapolis";"MD";"21405";"United States"
"fec10a92-6eef-458f-b0ba-a9fadbc8e200";"972 Judy Avenue";"Shreveport";"LA";"71130";"United States"
"ff1466a8-9dde-4f44-85ce-4286d1e56075";"3065 Esker Pass";"Pompano Beach";"FL";"33064";"United States"
"ff42bb67-82f9-4001-9be7-7a17375ace19";"77079 Manufacturers Junction";"Van Nuys";"CA";"91406";"United States"
"ff4aeba9-e764-479e-b747-d0d1caedb12d";"66633 Atwood Hill";"Beaufort";"SC";"29905";"United States"